{"type": "FeatureCollection", "features": [{"type": "Feature", "properties": {"amenity": "school", "name": "High Secondary School"}, "geometry": {"type": "Point", "coordinates": [88.6084736, 27.3427513]}}, {"type": "Feature", "properties": {"amenity": "school", "name": "Sai Prashanti Vidya Mandir"}, "geometry": {"type": "Point", "coordinates": [88.6050941, 27.3419841]}}, {"type": "Feature", "properties": {"amenity": "school", "name": "Bethany school"}, "geometry": {"type": "Point", "coordinates": [88.264949, 27.0380697]}}, {"type": "Feature", "properties": {"amenity": "school", "name": "Mahatma Gandhi High School"}, "geometry": {"type": "Point", "coordinates": [88.2695448, 27.0493571]}}, {"type": "Feature", "properties": {"amenity": "school", "name": "Vidya Vikash Academy"}, "geometry": {"type": "Point", "coordinates": [88.2651119, 27.0523334]}}, {"type": "Feature", "properties": {"amenity": "school", "name": "Dr grahams historical school"}, "geometry": {"type": "Point", "coordinates": [88.492285, 27.0822633]}}, {"type": "Feature", "properties": {"amenity": "school", "name": "shri Adarsha Lower Secondary School"}, "geometry": {"type": "Point", "coordinates": [87.9255542, 26.9112224]}}, {"type": "Feature", "properties": {"amenity": "school", "name": ""}, "geometry": {"type": "Point", "coordinates": [88.0394291, 26.9357816]}}, {"type": "Feature", "properties": {"amenity": "school", "name": ""}, "geometry": {"type": "Point", "coordinates": [88.9723551, 26.9397883]}}, {"type": "Feature", "properties": {"amenity": "hospital", "name": ""}, "geometry": {"type": "Point", "coordinates": [88.6135864, 27.3313407]}}, {"type": "Feature", "properties": {"amenity": "school", "name": "Kerabari Ground667"}, "geometry": {"type": "Point", "coordinates": [88.0338819, 26.9008131]}}, {"type": "Feature", "properties": {"amenity": "hospital", "name": "District Hospital Ilam"}, "geometry": {"type": "Point", "coordinates": [87.9266972, 26.9091887]}}, {"type": "Feature", "properties": {"amenity": "school", "name": ""}, "geometry": {"type": "Point", "coordinates": [88.2607322, 27.0520839]}}, {"type": "Feature", "properties": {"amenity": "hospital", "name": "Yuksam, PHC"}, "geometry": {"type": "Point", "coordinates": [88.2252546, 27.3708529]}}, {"type": "Feature", "properties": {"amenity": "hospital", "name": "Government General Hospital Blood Bank - Namchi"}, "geometry": {"type": "Point", "coordinates": [88.360583, 27.1655039]}}, {"type": "Feature", "properties": {"amenity": "hospital", "name": "Central Referral Hospital"}, "geometry": {"type": "Point", "coordinates": [88.5975829, 27.3163644]}}, {"type": "Feature", "properties": {"amenity": "hospital", "name": "Sikkim Manipal Institute of Medical Sciences"}, "geometry": {"type": "Point", "coordinates": [88.5975802, 27.3174225]}}, {"type": "Feature", "properties": {"amenity": "school", "name": "Government science collage chakunh"}, "geometry": {"type": "Point", "coordinates": [88.2492974, 27.1472039]}}, {"type": "Feature", "properties": {"amenity": "school", "name": "Gandhi Ashram School"}, "geometry": {"type": "Point", "coordinates": [88.4469913, 27.0528759]}}, {"type": "Feature", "properties": {"amenity": "hospital", "name": "Seva Sadan Hospital, Darjeeling"}, "geometry": {"type": "Point", "coordinates": [88.4766126, 27.0733801]}}, {"type": "Feature", "properties": {"amenity": "hospital", "name": "Geyzing District Hospital"}, "geometry": {"type": "Point", "coordinates": [88.256922, 27.291121]}}, {"type": "Feature", "properties": {"amenity": "hospital", "name": "Singtam District Hospital"}, "geometry": {"type": "Point", "coordinates": [88.4950137, 27.2298217]}}, {"type": "Feature", "properties": {"amenity": "hospital", "name": "Bijanbari Rural Hospital"}, "geometry": {"type": "Point", "coordinates": [88.19806, 27.072371]}}, {"type": "Feature", "properties": {"amenity": "school", "name": "Syari government school"}, "geometry": {"type": "Point", "coordinates": [88.5966385, 27.2968055]}}, {"type": "Feature", "properties": {"amenity": "school", "name": "Sernya English Junior High School"}, "geometry": {"type": "Point", "coordinates": [88.5982344, 27.2988897]}}, {"type": "Feature", "properties": {"amenity": "hospital", "name": "Tashiding Hospital"}, "geometry": {"type": "Point", "coordinates": [88.286698, 27.327142]}}, {"type": "Feature", "properties": {"amenity": "hospital", "name": "District Hospital"}, "geometry": {"type": "Point", "coordinates": [88.3750115, 27.1712753]}}, {"type": "Feature", "properties": {"amenity": "hospital", "name": "Lachen Hospital"}, "geometry": {"type": "Point", "coordinates": [88.5508921, 27.7296019]}}, {"type": "Feature", "properties": {"amenity": "hospital", "name": "Baidhya Ayurvedic Hospital"}, "geometry": {"type": "Point", "coordinates": [88.495588, 27.2276025]}}, {"type": "Feature", "properties": {"amenity": "hospital", "name": "Mangan District Hospital"}, "geometry": {"type": "Point", "coordinates": [88.531877, 27.490878]}}, {"type": "Feature", "properties": {"amenity": "hospital", "name": "Government Hospital"}, "geometry": {"type": "Point", "coordinates": [88.597016, 27.314817]}}, {"type": "Feature", "properties": {"amenity": "hospital", "name": "STNM Multispeciality Hospital"}, "geometry": {"type": "Point", "coordinates": [88.5987252, 27.2436348]}}, {"type": "Feature", "properties": {"amenity": "hospital", "name": "50 Bedded Ayush Hospital"}, "geometry": {"type": "Point", "coordinates": [88.245448, 27.289573]}}, {"type": "Feature", "properties": {"amenity": "hospital", "name": "Tukvar Hospital"}, "geometry": {"type": "Point", "coordinates": [88.258366, 27.085975]}}, {"type": "Feature", "properties": {"amenity": "hospital", "name": "Latpanchar Hospital"}, "geometry": {"type": "Point", "coordinates": [88.4064506, 26.9123736]}}, {"type": "Feature", "properties": {"amenity": "school", "name": "\u0932\u0940\u0932\u093e\u0935\u0924\u0940 \u092a\u094d\u0930\u093e\u0907\u092e\u0930\u0940 \u0938\u094d\u0915\u0942\u0932"}, "geometry": {"type": "Point", "coordinates": [88.2526778, 26.9149792]}}, {"type": "Feature", "properties": {"amenity": "school", "name": "Sikkim Government School Arithang"}, "geometry": {"type": "Point", "coordinates": [88.6087123, 27.3317133]}}, {"type": "Feature", "properties": {"amenity": "school", "name": "Gnon-Primary School"}, "geometry": {"type": "Point", "coordinates": [88.5054575, 27.4455809]}}, {"type": "Feature", "properties": {"amenity": "school", "name": "Gor Secondary School Lower Dzongu"}, "geometry": {"type": "Point", "coordinates": [88.4998463, 27.4181418]}}, {"type": "Feature", "properties": {"amenity": "school", "name": "Lum Junior High School"}, "geometry": {"type": "Point", "coordinates": [88.4889874, 27.3863318]}}, {"type": "Feature", "properties": {"amenity": "school", "name": "New Vision Computer center"}, "geometry": {"type": "Point", "coordinates": [87.9295104, 26.9128237]}}, {"type": "Feature", "properties": {"amenity": "school", "name": "Durga Primary School"}, "geometry": {"type": "Point", "coordinates": [87.9271638, 26.9546706]}}, {"type": "Feature", "properties": {"amenity": "school", "name": "Global Education Foundation"}, "geometry": {"type": "Point", "coordinates": [87.9231175, 26.9084659]}}, {"type": "Feature", "properties": {"amenity": "school", "name": "Satyanarayan Basic School"}, "geometry": {"type": "Point", "coordinates": [87.9273801, 26.9207625]}}, {"type": "Feature", "properties": {"amenity": "school", "name": "saraswati basic school todke ilam"}, "geometry": {"type": "Point", "coordinates": [87.9401914, 27.0543144]}}, {"type": "Feature", "properties": {"amenity": "school", "name": "shree sumbek secondary school"}, "geometry": {"type": "Point", "coordinates": [87.940424, 26.9811176]}}, {"type": "Feature", "properties": {"amenity": "school", "name": "Bidhyodaya Primary School"}, "geometry": {"type": "Point", "coordinates": [88.0127218, 26.9189752]}}, {"type": "Feature", "properties": {"amenity": "school", "name": "Prajna Sadan School"}, "geometry": {"type": "Point", "coordinates": [87.9261965, 26.9257097]}}, {"type": "Feature", "properties": {"amenity": "school", "name": "New IT College"}, "geometry": {"type": "Point", "coordinates": [87.9283761, 26.9100292]}}, {"type": "Feature", "properties": {"amenity": "school", "name": "Shree Devkota Primary School"}, "geometry": {"type": "Point", "coordinates": [87.9269629, 26.9323368]}}, {"type": "Feature", "properties": {"amenity": "school", "name": "Shree Saraswati Secondary School, Soyang"}, "geometry": {"type": "Point", "coordinates": [87.9661643, 26.935527]}}, {"type": "Feature", "properties": {"amenity": "school", "name": "Brindavan Boarding School Namsaling,Ilam"}, "geometry": {"type": "Point", "coordinates": [87.9661631, 26.9115604]}}, {"type": "Feature", "properties": {"amenity": "school", "name": "suryajyoti college"}, "geometry": {"type": "Point", "coordinates": [87.9272942, 26.9102054]}}, {"type": "Feature", "properties": {"amenity": "school", "name": "MRMC"}, "geometry": {"type": "Point", "coordinates": [87.9222376, 26.9091405]}}, {"type": "Feature", "properties": {"amenity": "school", "name": "Okhre"}, "geometry": {"type": "Point", "coordinates": [87.9207793, 26.9474344]}}, {"type": "Feature", "properties": {"amenity": "school", "name": "Hamro Education Academy"}, "geometry": {"type": "Point", "coordinates": [87.9291871, 26.9199475]}}, {"type": "Feature", "properties": {"amenity": "school", "name": "Singfring School"}, "geometry": {"type": "Point", "coordinates": [87.9331018, 26.9280306]}}, {"type": "Feature", "properties": {"amenity": "school", "name": "Jubilant Elite Academy"}, "geometry": {"type": "Point", "coordinates": [87.9262656, 26.9101875]}}, {"type": "Feature", "properties": {"amenity": "school", "name": "Jyoti Sadan Boarding Schol"}, "geometry": {"type": "Point", "coordinates": [87.9297034, 26.9107202]}}, {"type": "Feature", "properties": {"amenity": "school", "name": "Bidhya Primary School"}, "geometry": {"type": "Point", "coordinates": [87.9370397, 26.9027639]}}, {"type": "Feature", "properties": {"amenity": "school", "name": "Shree Krishna Secondary School"}, "geometry": {"type": "Point", "coordinates": [87.9237233, 26.9135922]}}, {"type": "Feature", "properties": {"amenity": "school", "name": "Shree Krishna Secondary School"}, "geometry": {"type": "Point", "coordinates": [87.9235191, 26.9110908]}}, {"type": "Feature", "properties": {"amenity": "school", "name": "Pokhari Primary School"}, "geometry": {"type": "Point", "coordinates": [87.9176744, 26.9030408]}}, {"type": "Feature", "properties": {"amenity": "school", "name": "Ilam Community Agriculture Campus Ilam (ICAC)"}, "geometry": {"type": "Point", "coordinates": [87.9236775, 26.9035523]}}, {"type": "Feature", "properties": {"amenity": "school", "name": "Samata School Ilam"}, "geometry": {"type": "Point", "coordinates": [87.930783, 26.9086192]}}, {"type": "Feature", "properties": {"amenity": "school", "name": "Green Valley Academy"}, "geometry": {"type": "Point", "coordinates": [87.9302163, 26.9098154]}}, {"type": "Feature", "properties": {"amenity": "school", "name": "Heritage National Academy"}, "geometry": {"type": "Point", "coordinates": [87.9262917, 26.9072472]}}, {"type": "Feature", "properties": {"amenity": "school", "name": "Mount Mechi Boarding School, Ilam"}, "geometry": {"type": "Point", "coordinates": [87.9309798, 26.9116041]}}, {"type": "Feature", "properties": {"amenity": "school", "name": "Aadarsha Higher SecondarySchool"}, "geometry": {"type": "Point", "coordinates": [87.9299215, 26.9077211]}}, {"type": "Feature", "properties": {"amenity": "school", "name": "Ilam Higher Secondary School"}, "geometry": {"type": "Point", "coordinates": [87.9247605, 26.9082254]}}, {"type": "Feature", "properties": {"amenity": "school", "name": "Aadarsha School"}, "geometry": {"type": "Point", "coordinates": [87.9255588, 26.911196]}}, {"type": "Feature", "properties": {"amenity": "school", "name": "Montessori Secondary School, Ilam"}, "geometry": {"type": "Point", "coordinates": [87.9284023, 26.9140035]}}, {"type": "Feature", "properties": {"amenity": "school", "name": "Ilam Vidya Mandir"}, "geometry": {"type": "Point", "coordinates": [87.9280569, 26.9233278]}}, {"type": "Feature", "properties": {"amenity": "school", "name": "Yuksom school"}, "geometry": {"type": "Point", "coordinates": [88.2213205, 27.3653922]}}, {"type": "Feature", "properties": {"amenity": "school", "name": "Tumlong school"}, "geometry": {"type": "Point", "coordinates": [88.5854504, 27.4191567]}}, {"type": "Feature", "properties": {"amenity": "school", "name": ""}, "geometry": {"type": "Point", "coordinates": [88.5849128, 27.4196393]}}, {"type": "Feature", "properties": {"amenity": "school", "name": "Sambhota Tibetan School"}, "geometry": {"type": "Point", "coordinates": [88.3642977, 27.2960846]}}, {"type": "Feature", "properties": {"amenity": "school", "name": ""}, "geometry": {"type": "Point", "coordinates": [88.4724495, 27.0733311]}}, {"type": "Feature", "properties": {"amenity": "school", "name": "Karmapa Center of Education"}, "geometry": {"type": "Point", "coordinates": [88.5261775, 27.0711458]}}, {"type": "Feature", "properties": {"amenity": "school", "name": "HTNHA Art School"}, "geometry": {"type": "Point", "coordinates": [88.5254526, 27.0594463]}}, {"type": "Feature", "properties": {"amenity": "school", "name": ""}, "geometry": {"type": "Point", "coordinates": [88.3136979, 27.2385979]}}, {"type": "Feature", "properties": {"amenity": "school", "name": "Gandhi Ashram"}, "geometry": {"type": "Point", "coordinates": [88.4458653, 27.0528327]}}, {"type": "Feature", "properties": {"amenity": "school", "name": "Govt Primary school"}, "geometry": {"type": "Point", "coordinates": [88.5711651, 27.3040169]}}, {"type": "Feature", "properties": {"amenity": "school", "name": "Santinagar petrol pump"}, "geometry": {"type": "Point", "coordinates": [88.5017409, 27.2330874]}}, {"type": "Feature", "properties": {"amenity": "school", "name": "Mateli girls high school"}, "geometry": {"type": "Point", "coordinates": [88.8077984, 26.9331578]}}, {"type": "Feature", "properties": {"amenity": "school", "name": "Mateli rastrabhasa vidyalaya"}, "geometry": {"type": "Point", "coordinates": [88.8056043, 26.9260243]}}, {"type": "Feature", "properties": {"amenity": "school", "name": "MRM college"}, "geometry": {"type": "Point", "coordinates": [87.9215933, 26.9091837]}}, {"type": "Feature", "properties": {"amenity": "school", "name": "St. Pauls School"}, "geometry": {"type": "Point", "coordinates": [88.2643349, 27.0325069]}}, {"type": "Feature", "properties": {"amenity": "school", "name": "St. Pauls School"}, "geometry": {"type": "Point", "coordinates": [88.2639547, 27.0317894]}}, {"type": "Feature", "properties": {"amenity": "hospital", "name": "Eden Hospital"}, "geometry": {"type": "Point", "coordinates": [88.2647213, 27.0445161]}}, {"type": "Feature", "properties": {"amenity": "school", "name": "St. Robert's School"}, "geometry": {"type": "Point", "coordinates": [88.2657862, 27.0462844]}}, {"type": "Feature", "properties": {"amenity": "school", "name": "St. Joseph's College - LD Ground"}, "geometry": {"type": "Point", "coordinates": [88.2524997, 27.0625659]}}, {"type": "Feature", "properties": {"amenity": "school", "name": "St. Joseph's School (PD Field)"}, "geometry": {"type": "Point", "coordinates": [88.2528112, 27.0614334]}}, {"type": "Feature", "properties": {"amenity": "school", "name": "MH Buthurey Ground"}, "geometry": {"type": "Point", "coordinates": [88.2514661, 27.0642503]}}, {"type": "Feature", "properties": {"amenity": "school", "name": "Mount Hermon School"}, "geometry": {"type": "Point", "coordinates": [88.2516248, 27.0665379]}}, {"type": "Feature", "properties": {"amenity": "school", "name": "Nepali Girls High School"}, "geometry": {"type": "Point", "coordinates": [88.263933, 27.0375894]}}, {"type": "Feature", "properties": {"amenity": "school", "name": "Government Boys High School"}, "geometry": {"type": "Point", "coordinates": [88.2609729, 27.0395998]}}, {"type": "Feature", "properties": {"amenity": "school", "name": "St. Teresa School"}, "geometry": {"type": "Point", "coordinates": [88.2630018, 27.0476392]}}, {"type": "Feature", "properties": {"amenity": "hospital", "name": "STNM Hospital"}, "geometry": {"type": "Point", "coordinates": [88.6026462, 27.3466714]}}, {"type": "Feature", "properties": {"amenity": "school", "name": "Palzor Namgyal Girls Secondary School"}, "geometry": {"type": "Point", "coordinates": [88.6113828, 27.3359003]}}, {"type": "Feature", "properties": {"amenity": "school", "name": "Turnbull High School"}, "geometry": {"type": "Point", "coordinates": [88.2642222, 27.0383309]}}, {"type": "Feature", "properties": {"amenity": "school", "name": "Nepali Girls High School"}, "geometry": {"type": "Point", "coordinates": [88.2637127, 27.0372917]}}, {"type": "Feature", "properties": {"amenity": "school", "name": "Maharani Girls' High School"}, "geometry": {"type": "Point", "coordinates": [88.2610825, 27.0370474]}}, {"type": "Feature", "properties": {"amenity": "school", "name": "St. Pauls School"}, "geometry": {"type": "Point", "coordinates": [88.2648569, 27.0332463]}}, {"type": "Feature", "properties": {"amenity": "school", "name": ""}, "geometry": {"type": "Point", "coordinates": [88.2862554, 27.1314759]}}, {"type": "Feature", "properties": {"amenity": "school", "name": ""}, "geometry": {"type": "Point", "coordinates": [88.2609629, 27.2949654]}}, {"type": "Feature", "properties": {"amenity": "school", "name": "Saint Mary's Convent School"}, "geometry": {"type": "Point", "coordinates": [88.2434608, 27.2968373]}}, {"type": "Feature", "properties": {"amenity": "school", "name": ""}, "geometry": {"type": "Point", "coordinates": [87.9693113, 26.914757]}}, {"type": "Feature", "properties": {"amenity": "school", "name": ""}, "geometry": {"type": "Point", "coordinates": [88.6154069, 27.1583569]}}, {"type": "Feature", "properties": {"amenity": "school", "name": "Namchi Public School"}, "geometry": {"type": "Point", "coordinates": [88.3700862, 27.1707247]}}, {"type": "Feature", "properties": {"amenity": "school", "name": "\u0f56\u0f62\u0f9f\u0f53\u0f0b\u0f60\u0f56\u0fb2\u0f74\u0f42\u0f0b\u0f66\u0fb3\u0f7c\u0f56\u0f0b\u0f42\u0fb2\u0fad\u0f0b\u0f63\u0f9f\u0f0b\u0f56\u0f0d"}, "geometry": {"type": "Point", "coordinates": [88.8715509, 27.1211828]}}, {"type": "Feature", "properties": {"amenity": "hospital", "name": "Tendu BHU"}, "geometry": {"type": "Point", "coordinates": [88.8757319, 27.1270754]}}, {"type": "Feature", "properties": {"amenity": "school", "name": "Municipal Girls High School"}, "geometry": {"type": "Point", "coordinates": [88.2644827, 27.0396863]}}, {"type": "Feature", "properties": {"amenity": "school", "name": "Municipal Girls High School"}, "geometry": {"type": "Point", "coordinates": [88.2643691, 27.0398085]}}, {"type": "Feature", "properties": {"amenity": "school", "name": "Don Bosco School"}, "geometry": {"type": "Point", "coordinates": [88.2274649, 27.160159]}}, {"type": "Feature", "properties": {"amenity": "school", "name": "Soreng Senior Secondary School"}, "geometry": {"type": "Point", "coordinates": [88.2001532, 27.1713663]}}, {"type": "Feature", "properties": {"amenity": "school", "name": "JNV West Sikkim"}, "geometry": {"type": "Point", "coordinates": [88.2939965, 27.1638513]}}, {"type": "Feature", "properties": {"amenity": "school", "name": "Soeltapsa primary school"}, "geometry": {"type": "Point", "coordinates": [88.8937653, 27.1471088]}}, {"type": "Feature", "properties": {"amenity": "hospital", "name": "Primary Health Centre"}, "geometry": {"type": "Point", "coordinates": [88.3215659, 27.3237393]}}, {"type": "Feature", "properties": {"amenity": "hospital", "name": ""}, "geometry": {"type": "Point", "coordinates": [88.121596, 27.1327591]}}, {"type": "Feature", "properties": {"amenity": "hospital", "name": "Ganthog BHU"}, "geometry": {"type": "Point", "coordinates": [88.9151456, 27.0024808]}}, {"type": "Feature", "properties": {"amenity": "school", "name": "Gnon-Sangdong Junior High School"}, "geometry": {"type": "Point", "coordinates": [88.5052186, 27.4536761]}}, {"type": "Feature", "properties": {"amenity": "school", "name": ""}, "geometry": {"type": "Point", "coordinates": [88.5054574, 27.4541842]}}, {"type": "Feature", "properties": {"amenity": "school", "name": ""}, "geometry": {"type": "Point", "coordinates": [88.5053586, 27.4456157]}}, {"type": "Feature", "properties": {"amenity": "school", "name": "Mangzing Primary School"}, "geometry": {"type": "Point", "coordinates": [88.4864427, 27.4903582]}}, {"type": "Feature", "properties": {"amenity": "hospital", "name": "Bara BHU"}, "geometry": {"type": "Point", "coordinates": [88.8473804, 27.1257776]}}, {"type": "Feature", "properties": {"amenity": "hospital", "name": "Pemaling BHU"}, "geometry": {"type": "Point", "coordinates": [88.8978424, 27.047471]}}, {"type": "Feature", "properties": {"amenity": "hospital", "name": "Sangachhoeling BHU"}, "geometry": {"type": "Point", "coordinates": [88.9478778, 26.9825696]}}, {"type": "Feature", "properties": {"amenity": "hospital", "name": "Sibsoo Hospital"}, "geometry": {"type": "Point", "coordinates": [88.8836586, 27.0351803]}}, {"type": "Feature", "properties": {"amenity": "hospital", "name": "Yoseltse BHU"}, "geometry": {"type": "Point", "coordinates": [88.9696491, 26.9408521]}}, {"type": "Feature", "properties": {"amenity": "hospital", "name": ""}, "geometry": {"type": "Point", "coordinates": [88.6135632, 27.3313882]}}, {"type": "Feature", "properties": {"amenity": "school", "name": ""}, "geometry": {"type": "Point", "coordinates": [88.2745, 27.2803328]}}, {"type": "Feature", "properties": {"amenity": "school", "name": "Tungsung Primary School"}, "geometry": {"type": "Point", "coordinates": [88.8626167, 27.0706482]}}, {"type": "Feature", "properties": {"amenity": "hospital", "name": "Health & Wellness Center"}, "geometry": {"type": "Point", "coordinates": [88.3649865, 27.3088197]}}, {"type": "Feature", "properties": {"amenity": "school", "name": "\u4e0b\u4e9a\u4e1c\u4e61\u5c0f\u5b66"}, "geometry": {"type": "Point", "coordinates": [88.9226618, 27.4352419]}}, {"type": "Feature", "properties": {"amenity": "school", "name": "GMS Grounds"}, "geometry": {"type": "Point", "coordinates": [88.2865293, 26.9025137]}}, {"type": "Feature", "properties": {"amenity": "school", "name": "GMS Grounds"}, "geometry": {"type": "Point", "coordinates": [88.2872245, 26.9011841]}}, {"type": "Feature", "properties": {"amenity": "school", "name": "GMS Grounds"}, "geometry": {"type": "Point", "coordinates": [88.2875687, 26.902632]}}]}