{"type": "FeatureCollection", "features": [{"type": "Feature", "properties": {"name": "Rorithang", "place": "village"}, "geometry": {"type": "Point", "coordinates": [88.61161, 27.19666]}}, {"type": "Feature", "properties": {"name": "Makha", "place": "village"}, "geometry": {"type": "Point", "coordinates": [88.4551789, 27.3114263]}}, {"type": "Feature", "properties": {"name": "Reshi", "place": "village"}, "geometry": {"type": "Point", "coordinates": [88.3054235, 27.2218926]}}, {"type": "Feature", "properties": {"name": "Legship", "place": "village"}, "geometry": {"type": "Point", "coordinates": [88.27515, 27.28043]}}, {"type": "Feature", "properties": {"name": "Naya Bazaar", "place": "village"}, "geometry": {"type": "Point", "coordinates": [88.2761414, 27.13211]}}, {"type": "Feature", "properties": {"name": "Rimbi", "place": "village"}, "geometry": {"type": "Point", "coordinates": [88.18589, 27.31476]}}, {"type": "Feature", "properties": {"name": "Pelling", "place": "village"}, "geometry": {"type": "Point", "coordinates": [88.2356503, 27.3003722]}}, {"type": "Feature", "properties": {"name": "Kyangsala", "place": "village"}, "geometry": {"type": "Point", "coordinates": [88.71323, 27.36694]}}, {"type": "Feature", "properties": {"name": "Sherathang", "place": "village"}, "geometry": {"type": "Point", "coordinates": [88.8152126, 27.3803999]}}, {"type": "Feature", "properties": {"name": "Tsomgo", "place": "village"}, "geometry": {"type": "Point", "coordinates": [88.7566799, 27.3754372]}}, {"type": "Feature", "properties": {"name": "Dikchu", "place": "village"}, "geometry": {"type": "Point", "coordinates": [88.5224236, 27.4022231]}}, {"type": "Feature", "properties": {"name": "Yuksom", "place": "village"}, "geometry": {"type": "Point", "coordinates": [88.2184825, 27.3692431]}}, {"type": "Feature", "properties": {"name": "\u092f\u093e\u092e\u094d\u092b\u0941\u0926\u093f\u0928", "place": "hamlet"}, "geometry": {"type": "Point", "coordinates": [87.9085066, 27.4513123]}}, {"type": "Feature", "properties": {"name": "\u091f\u094b\u0930\u094d\u091f\u094b\u0919", "place": "hamlet"}, "geometry": {"type": "Point", "coordinates": [87.9134421, 27.5280926]}}, {"type": "Feature", "properties": {"name": "Tseram", "place": "hamlet"}, "geometry": {"type": "Point", "coordinates": [87.9773269, 27.5691746]}}, {"type": "Feature", "properties": {"name": "\u0930\u093e\u092e\u094d\u091a\u0947 (Ramche)", "place": "hamlet"}, "geometry": {"type": "Point", "coordinates": [88.0313801, 27.5940731]}}, {"type": "Feature", "properties": {"name": "\u0918\u0941\u0928\u094d\u0938\u093e", "place": "hamlet"}, "geometry": {"type": "Point", "coordinates": [87.936432, 27.660812]}}, {"type": "Feature", "properties": {"name": "\u0932\u094b\u0928\u093e\u0915 Lhonak", "place": "hamlet"}, "geometry": {"type": "Point", "coordinates": [88.0356137, 27.7900712]}}, {"type": "Feature", "properties": {"name": "Pangpema", "place": "hamlet"}, "geometry": {"type": "Point", "coordinates": [88.1100906, 27.7878398]}}, {"type": "Feature", "properties": {"name": "\u092b\u0932\u0947 (Phale)", "place": "hamlet"}, "geometry": {"type": "Point", "coordinates": [87.9177639, 27.6418759]}}, {"type": "Feature", "properties": {"name": "Gorubathan", "place": "village"}, "geometry": {"type": "Point", "coordinates": [88.697292, 26.9592793]}}, {"type": "Feature", "properties": {"name": "Ghoom", "place": "village"}, "geometry": {"type": "Point", "coordinates": [88.2585922, 27.0083519]}}, {"type": "Feature", "properties": {"name": "Pemayangtse", "place": "village"}, "geometry": {"type": "Point", "coordinates": [88.249866, 27.2990627]}}, {"type": "Feature", "properties": {"name": "Damthang", "place": "village"}, "geometry": {"type": "Point", "coordinates": [88.3894686, 27.2294294]}}, {"type": "Feature", "properties": {"name": "Katao", "place": "village"}, "geometry": {"type": "Point", "coordinates": [88.8140893, 27.6714244]}}, {"type": "Feature", "properties": {"name": "Manpur", "place": "village"}, "geometry": {"type": "Point", "coordinates": [88.3633001, 27.1025182]}}, {"type": "Feature", "properties": {"name": "Sakyong", "place": "hamlet"}, "geometry": {"type": "Point", "coordinates": [88.4082309, 27.56967]}}, {"type": "Feature", "properties": {"name": "Sangkalang", "place": "village"}, "geometry": {"type": "Point", "coordinates": [88.5294268, 27.5068256]}}, {"type": "Feature", "properties": {"name": "Phong", "place": "village"}, "geometry": {"type": "Point", "coordinates": [88.4374753, 27.1541356]}}, {"type": "Feature", "properties": {"name": "Sumbuk", "place": "village"}, "geometry": {"type": "Point", "coordinates": [88.3813601, 27.1160361]}}, {"type": "Feature", "properties": {"name": "Pabong", "place": "village"}, "geometry": {"type": "Point", "coordinates": [88.4467864, 27.2284638]}}, {"type": "Feature", "properties": {"name": "Simchuthang", "place": "village"}, "geometry": {"type": "Point", "coordinates": [88.4505706, 27.2441608]}}, {"type": "Feature", "properties": {"name": "Tarku", "place": "village"}, "geometry": {"type": "Point", "coordinates": [88.4216256, 27.2346306]}}, {"type": "Feature", "properties": {"name": "Yangang", "place": "village"}, "geometry": {"type": "Point", "coordinates": [88.4143849, 27.2948923]}}, {"type": "Feature", "properties": {"name": "Rumtek", "place": "hamlet"}, "geometry": {"type": "Point", "coordinates": [88.5622309, 27.2896125]}}, {"type": "Feature", "properties": {"name": "Gairibas", "place": "hamlet"}, "geometry": {"type": "Point", "coordinates": [88.0246254, 27.0592783]}}, {"type": "Feature", "properties": {"name": "Bikeybhanjan", "place": "hamlet"}, "geometry": {"type": "Point", "coordinates": [88.01296, 27.0929468]}}, {"type": "Feature", "properties": {"name": "Risop", "place": "hamlet"}, "geometry": {"type": "Point", "coordinates": [88.6496697, 27.1092441]}}, {"type": "Feature", "properties": {"name": "Sandakphu", "place": "hamlet"}, "geometry": {"type": "Point", "coordinates": [88.0015441, 27.104806]}}, {"type": "Feature", "properties": {"name": "\u59c6\u6751", "place": "village"}, "geometry": {"type": "Point", "coordinates": [88.1004238, 28.156498]}}, {"type": "Feature", "properties": {"name": "Tonglu", "place": "hamlet"}, "geometry": {"type": "Point", "coordinates": [88.0805457, 27.033721]}}, {"type": "Feature", "properties": {"name": "Dhotre", "place": "village"}, "geometry": {"type": "Point", "coordinates": [88.1107145, 27.0497922]}}, {"type": "Feature", "properties": {"name": "Rimbick", "place": "village"}, "geometry": {"type": "Point", "coordinates": [88.1115779, 27.1144304]}}, {"type": "Feature", "properties": {"name": "Rammam", "place": "village"}, "geometry": {"type": "Point", "coordinates": [88.0800659, 27.1577152]}}, {"type": "Feature", "properties": {"name": "Samanden", "place": "village"}, "geometry": {"type": "Point", "coordinates": [88.0718264, 27.1819404]}}, {"type": "Feature", "properties": {"name": "Gorkhey", "place": "village"}, "geometry": {"type": "Point", "coordinates": [88.0719475, 27.1874355]}}, {"type": "Feature", "properties": {"name": "\u0915\u093e\u0932\u093e \u092a\u094b\u0916\u0930\u0940", "place": "hamlet"}, "geometry": {"type": "Point", "coordinates": [88.0171082, 27.0788791]}}, {"type": "Feature", "properties": {"name": "Gurdum", "place": "hamlet"}, "geometry": {"type": "Point", "coordinates": [88.0566778, 27.1215096]}}, {"type": "Feature", "properties": {"name": "Algarah", "place": "village"}, "geometry": {"type": "Point", "coordinates": [88.5836206, 27.1173436]}}, {"type": "Feature", "properties": {"name": "Takchang", "place": "village"}, "geometry": {"type": "Point", "coordinates": [88.6341557, 27.2156685]}}, {"type": "Feature", "properties": {"name": "Biblyatey Bajaar", "place": "hamlet"}, "geometry": {"type": "Point", "coordinates": [87.9222225, 26.9416019]}}, {"type": "Feature", "properties": {"name": "Chure Ghati", "place": "hamlet"}, "geometry": {"type": "Point", "coordinates": [87.9255688, 26.9290156]}}, {"type": "Feature", "properties": {"name": "", "place": "hamlet"}, "geometry": {"type": "Point", "coordinates": [88.0299668, 28.1744261]}}, {"type": "Feature", "properties": {"name": "", "place": "village"}, "geometry": {"type": "Point", "coordinates": [88.0684175, 27.2696795]}}, {"type": "Feature", "properties": {"name": "", "place": "hamlet"}, "geometry": {"type": "Point", "coordinates": [88.0413433, 27.2694552]}}, {"type": "Feature", "properties": {"name": "", "place": "hamlet"}, "geometry": {"type": "Point", "coordinates": [88.0801278, 27.267992]}}, {"type": "Feature", "properties": {"name": "", "place": "hamlet"}, "geometry": {"type": "Point", "coordinates": [88.1783023, 27.264005]}}, {"type": "Feature", "properties": {"name": "", "place": "hamlet"}, "geometry": {"type": "Point", "coordinates": [88.2160892, 27.2741041]}}, {"type": "Feature", "properties": {"name": "\u695a\u7eb3\u6751", "place": "village"}, "geometry": {"type": "Point", "coordinates": [87.9819801, 28.1628638]}}, {"type": "Feature", "properties": {"name": "\u4fc4\u90a3", "place": "village"}, "geometry": {"type": "Point", "coordinates": [88.0023087, 28.1659202]}}, {"type": "Feature", "properties": {"name": "\u6717\u739b\u6751", "place": "village"}, "geometry": {"type": "Point", "coordinates": [87.9190943, 28.1742801]}}, {"type": "Feature", "properties": {"name": "", "place": "hamlet"}, "geometry": {"type": "Point", "coordinates": [88.6518908, 27.255628]}}, {"type": "Feature", "properties": {"name": "", "place": "hamlet"}, "geometry": {"type": "Point", "coordinates": [88.6606295, 27.2561488]}}, {"type": "Feature", "properties": {"name": "", "place": "hamlet"}, "geometry": {"type": "Point", "coordinates": [88.6534242, 27.2593259]}}, {"type": "Feature", "properties": {"name": "", "place": "village"}, "geometry": {"type": "Point", "coordinates": [88.650971, 27.2427477]}}, {"type": "Feature", "properties": {"name": "", "place": "hamlet"}, "geometry": {"type": "Point", "coordinates": [88.6717038, 27.2363245]}}, {"type": "Feature", "properties": {"name": "", "place": "hamlet"}, "geometry": {"type": "Point", "coordinates": [88.6795623, 27.2376725]}}, {"type": "Feature", "properties": {"name": "", "place": "village"}, "geometry": {"type": "Point", "coordinates": [88.6638604, 27.2431209]}}, {"type": "Feature", "properties": {"name": "", "place": "hamlet"}, "geometry": {"type": "Point", "coordinates": [88.6714381, 27.2455074]}}, {"type": "Feature", "properties": {"name": "", "place": "hamlet"}, "geometry": {"type": "Point", "coordinates": [88.6927724, 27.2452766]}}, {"type": "Feature", "properties": {"name": "", "place": "hamlet"}, "geometry": {"type": "Point", "coordinates": [88.7016686, 27.2583857]}}, {"type": "Feature", "properties": {"name": "", "place": "hamlet"}, "geometry": {"type": "Point", "coordinates": [88.6969547, 27.2605558]}}, {"type": "Feature", "properties": {"name": "", "place": "hamlet"}, "geometry": {"type": "Point", "coordinates": [88.512237, 27.2723551]}}, {"type": "Feature", "properties": {"name": "", "place": "hamlet"}, "geometry": {"type": "Point", "coordinates": [88.5214439, 27.2733522]}}, {"type": "Feature", "properties": {"name": "", "place": "hamlet"}, "geometry": {"type": "Point", "coordinates": [88.5228121, 27.2567255]}}, {"type": "Feature", "properties": {"name": "", "place": "hamlet"}, "geometry": {"type": "Point", "coordinates": [88.5137134, 27.2567621]}}, {"type": "Feature", "properties": {"name": "", "place": "hamlet"}, "geometry": {"type": "Point", "coordinates": [88.5875269, 27.3420595]}}, {"type": "Feature", "properties": {"name": "\u6625\u4e15\u6dcc", "place": "hamlet"}, "geometry": {"type": "Point", "coordinates": [88.867659, 27.4200813]}}, {"type": "Feature", "properties": {"name": "Samkona", "place": "village"}, "geometry": {"type": "Point", "coordinates": [88.2930655, 27.009409]}}, {"type": "Feature", "properties": {"name": "Assangthang", "place": "village"}, "geometry": {"type": "Point", "coordinates": [88.3285701, 27.1550385]}}, {"type": "Feature", "properties": {"name": "Burd\u0101ng", "place": "village"}, "geometry": {"type": "Point", "coordinates": [88.492303, 27.217871]}}, {"type": "Feature", "properties": {"name": "\u590f\u65e5 \u0f64\u0f62\u0f0b\u0f62\u0f72", "place": "village"}, "geometry": {"type": "Point", "coordinates": [88.9447988, 27.4225573]}}, {"type": "Feature", "properties": {"name": "\u5207\u739b\u6751 \u0f56\u0fb1\u0f7a\u0f0b\u0f58", "place": "village"}, "geometry": {"type": "Point", "coordinates": [88.9221549, 27.444596]}}, {"type": "Feature", "properties": {"name": "\u73e0\u5c45\u6751 \u0f42\u0fb2\u0f7c\u0f42\u0f0b\u0f51\u0f40\u0fb1\u0f72\u0f63", "place": "village"}, "geometry": {"type": "Point", "coordinates": [88.9218117, 27.4988296]}}, {"type": "Feature", "properties": {"name": "\u5409\u7ed2 \u0f66\u0f90\u0fb1\u0f72\u0f51\u0f0b\u0f42\u0fb2\u0f7c\u0f44\u0f0b\u0f5a\u0f63", "place": "hamlet"}, "geometry": {"type": "Point", "coordinates": [88.9364539, 27.5203914]}}, {"type": "Feature", "properties": {"name": "\u5c97\u53e4\u6751 \u0f66\u0f92\u0f44\u0f0b\u0f51\u0f42\u0f74", "place": "village"}, "geometry": {"type": "Point", "coordinates": [88.9394375, 27.5172849]}}, {"type": "Feature", "properties": {"name": "Sentam", "place": "village"}, "geometry": {"type": "Point", "coordinates": [88.5491178, 27.5171438]}}, {"type": "Feature", "properties": {"name": "Nanga", "place": "village"}, "geometry": {"type": "Point", "coordinates": [88.6220462, 27.5409131]}}, {"type": "Feature", "properties": {"name": "Chatakpur", "place": "village"}, "geometry": {"type": "Point", "coordinates": [88.3108039, 26.9669819]}}, {"type": "Feature", "properties": {"name": "Pedong", "place": "village"}, "geometry": {"type": "Point", "coordinates": [88.6117963, 27.1551305]}}, {"type": "Feature", "properties": {"name": "\u6625\u4e15\u6751 \u0f46\u0f74\u0f0b\u0f60\u0f56\u0f72\u0f0b\u0f42\u0fb2\u0f7c\u0f44\u0f0b\u0f5a\u0f7c\u0f0d", "place": "village"}, "geometry": {"type": "Point", "coordinates": [88.9110016, 27.4674609]}}, {"type": "Feature", "properties": {"name": "\u4ec1\u9752\u5c97\u6751 \u0f62\u0f72\u0f53\u0f0b\u0f46\u0f7a\u0f53\u0f0b\u0f66\u0f92\u0f44", "place": "village"}, "geometry": {"type": "Point", "coordinates": [88.928318, 27.4301802]}}, {"type": "Feature", "properties": {"name": "\u5df4\u5f97\u59c6\u624e", "place": "hamlet"}, "geometry": {"type": "Point", "coordinates": [88.9816189, 27.4210048]}}, {"type": "Feature", "properties": {"name": "\u5982\u4e19\u5c97\u6751", "place": "village"}, "geometry": {"type": "Point", "coordinates": [88.9651072, 27.5199849]}}, {"type": "Feature", "properties": {"name": "\u8d1d\u6728\u5c97 \u0f66\u0fa4\u0f74\u0f66\u0f0b\u0f58\u0f7c\u0f0b\u0f66\u0f92\u0f44", "place": "hamlet"}, "geometry": {"type": "Point", "coordinates": [88.9459562, 27.5187479]}}, {"type": "Feature", "properties": {"name": "\u4e0b\u5eb7\u5e03\u6751", "place": "village"}, "geometry": {"type": "Point", "coordinates": [88.9645278, 27.6906154]}}, {"type": "Feature", "properties": {"name": "\u8272\u8272", "place": "hamlet"}, "geometry": {"type": "Point", "coordinates": [88.9858675, 27.7706003]}}, {"type": "Feature", "properties": {"name": "\u5e93\u4ee4", "place": "hamlet"}, "geometry": {"type": "Point", "coordinates": [88.9923719, 27.7736642]}}, {"type": "Feature", "properties": {"name": "\u4e0a\u5eb7\u5e03\u6751", "place": "village"}, "geometry": {"type": "Point", "coordinates": [88.9927018, 27.7814836]}}, {"type": "Feature", "properties": {"name": "", "place": "village"}, "geometry": {"type": "Point", "coordinates": [87.9181659, 27.1907037]}}, {"type": "Feature", "properties": {"name": "", "place": "village"}, "geometry": {"type": "Point", "coordinates": [87.9165029, 27.3012021]}}, {"type": "Feature", "properties": {"name": "", "place": "village"}, "geometry": {"type": "Point", "coordinates": [87.9195285, 27.2962254]}}, {"type": "Feature", "properties": {"name": "Sadewa", "place": "village"}, "geometry": {"type": "Point", "coordinates": [87.9421449, 27.2878445]}}, {"type": "Feature", "properties": {"name": "Sibrek", "place": "village"}, "geometry": {"type": "Point", "coordinates": [87.9314375, 27.289761]}}, {"type": "Feature", "properties": {"name": "Bunrun", "place": "village"}, "geometry": {"type": "Point", "coordinates": [87.9094219, 27.2917633]}}, {"type": "Feature", "properties": {"name": "\u5e72\u6c99\u5c97", "place": "hamlet"}, "geometry": {"type": "Point", "coordinates": [88.904779, 27.4816333]}}, {"type": "Feature", "properties": {"name": "\u0916\u094b\u092a\u0940", "place": "hamlet"}, "geometry": {"type": "Point", "coordinates": [87.9240233, 27.0611555]}}, {"type": "Feature", "properties": {"name": "Alubari", "place": "hamlet"}, "geometry": {"type": "Point", "coordinates": [87.919544, 27.0597701]}}, {"type": "Feature", "properties": {"name": "\u0932\u0941\u092e\u094d\u091a\u094b\u0915", "place": "hamlet"}, "geometry": {"type": "Point", "coordinates": [87.9589886, 27.0800523]}}, {"type": "Feature", "properties": {"name": "Dadheli", "place": "hamlet"}, "geometry": {"type": "Point", "coordinates": [87.9548391, 27.0860589]}}, {"type": "Feature", "properties": {"name": "Phanchebun", "place": "hamlet"}, "geometry": {"type": "Point", "coordinates": [87.9505824, 27.0558235]}}, {"type": "Feature", "properties": {"name": "Chureghati", "place": "hamlet"}, "geometry": {"type": "Point", "coordinates": [87.9481691, 27.0346972]}}, {"type": "Feature", "properties": {"name": "Hile", "place": "hamlet"}, "geometry": {"type": "Point", "coordinates": [87.9127867, 27.0466241]}}, {"type": "Feature", "properties": {"name": "Kharkhare", "place": "hamlet"}, "geometry": {"type": "Point", "coordinates": [87.9129601, 27.0408664]}}, {"type": "Feature", "properties": {"name": "Serpe", "place": "hamlet"}, "geometry": {"type": "Point", "coordinates": [87.9288146, 27.0734953]}}, {"type": "Feature", "properties": {"name": "Gariabas", "place": "village"}, "geometry": {"type": "Point", "coordinates": [88.8656552, 27.024001]}}, {"type": "Feature", "properties": {"name": "Drogchhen", "place": "village"}, "geometry": {"type": "Point", "coordinates": [88.8819097, 27.1927388]}}, {"type": "Feature", "properties": {"name": "", "place": "hamlet"}, "geometry": {"type": "Point", "coordinates": [88.9930301, 27.0776244]}}, {"type": "Feature", "properties": {"name": "", "place": "village"}, "geometry": {"type": "Point", "coordinates": [88.9150937, 27.0477773]}}, {"type": "Feature", "properties": {"name": "Chamju", "place": "village"}, "geometry": {"type": "Point", "coordinates": [88.8533181, 27.1640644]}}, {"type": "Feature", "properties": {"name": "", "place": "village"}, "geometry": {"type": "Point", "coordinates": [88.8852246, 27.0404003]}}, {"type": "Feature", "properties": {"name": "", "place": "hamlet"}, "geometry": {"type": "Point", "coordinates": [88.9951737, 27.0674597]}}, {"type": "Feature", "properties": {"name": "Jhalong", "place": "village"}, "geometry": {"type": "Point", "coordinates": [88.8732963, 27.0401327]}}, {"type": "Feature", "properties": {"name": "Gangtok", "place": "village"}, "geometry": {"type": "Point", "coordinates": [88.9596183, 27.0477391]}}, {"type": "Feature", "properties": {"name": "Soreng", "place": "village"}, "geometry": {"type": "Point", "coordinates": [88.1994573, 27.1706415]}}, {"type": "Feature", "properties": {"name": "Chumbong", "place": "village"}, "geometry": {"type": "Point", "coordinates": [88.2368606, 27.1363086]}}, {"type": "Feature", "properties": {"name": "Chakung", "place": "village"}, "geometry": {"type": "Point", "coordinates": [88.2533777, 27.1502953]}}, {"type": "Feature", "properties": {"name": "Zoom", "place": "village"}, "geometry": {"type": "Point", "coordinates": [88.2633501, 27.1450111]}}, {"type": "Feature", "properties": {"name": "Singling", "place": "village"}, "geometry": {"type": "Point", "coordinates": [88.1992078, 27.1821336]}}, {"type": "Feature", "properties": {"name": "Sribadam", "place": "village"}, "geometry": {"type": "Point", "coordinates": [88.2072329, 27.2163672]}}, {"type": "Feature", "properties": {"name": "\u5e03\u82cf", "place": "hamlet"}, "geometry": {"type": "Point", "coordinates": [88.9707398, 27.4370125]}}, {"type": "Feature", "properties": {"name": "\u62ff\u65e5", "place": "hamlet"}, "geometry": {"type": "Point", "coordinates": [88.9403987, 27.3977176]}}, {"type": "Feature", "properties": {"name": "\u6dd1\u516c", "place": "hamlet"}, "geometry": {"type": "Point", "coordinates": [88.9601719, 27.3709765]}}, {"type": "Feature", "properties": {"name": "\u5858\u7d20\u5c14", "place": "hamlet"}, "geometry": {"type": "Point", "coordinates": [88.8485277, 27.4542556]}}, {"type": "Feature", "properties": {"name": "\u591a\u4ec1", "place": "hamlet"}, "geometry": {"type": "Point", "coordinates": [88.8249778, 27.450514]}}, {"type": "Feature", "properties": {"name": "Todey", "place": "village"}, "geometry": {"type": "Point", "coordinates": [88.8252278, 27.1108271]}}, {"type": "Feature", "properties": {"name": "\u4e22\u52d2\u5c91", "place": "hamlet"}, "geometry": {"type": "Point", "coordinates": [88.9796393, 27.3882851]}}, {"type": "Feature", "properties": {"name": "Samsing", "place": "village"}, "geometry": {"type": "Point", "coordinates": [88.8036059, 26.9891656]}}, {"type": "Feature", "properties": {"name": "Kumai", "place": "village"}, "geometry": {"type": "Point", "coordinates": [88.8529694, 26.9721659]}}, {"type": "Feature", "properties": {"name": "Mongkha", "place": "hamlet"}, "geometry": {"type": "Point", "coordinates": [88.8441115, 27.2094895]}}, {"type": "Feature", "properties": {"name": "Chhu Goo", "place": "village"}, "geometry": {"type": "Point", "coordinates": [88.8305057, 27.2016823]}}, {"type": "Feature", "properties": {"name": "Soeltapsa", "place": "hamlet"}, "geometry": {"type": "Point", "coordinates": [88.8933244, 27.1468158]}}, {"type": "Feature", "properties": {"name": "Kachin", "place": "village"}, "geometry": {"type": "Point", "coordinates": [88.9167734, 27.1451026]}}, {"type": "Feature", "properties": {"name": "Domdongsa", "place": "hamlet"}, "geometry": {"type": "Point", "coordinates": [88.925233, 27.1621255]}}, {"type": "Feature", "properties": {"name": "Miglamthang", "place": "village"}, "geometry": {"type": "Point", "coordinates": [88.9022211, 27.1510182]}}, {"type": "Feature", "properties": {"name": "\u90a3\u5858\u6751", "place": "village"}, "geometry": {"type": "Point", "coordinates": [88.9693298, 27.3342]}}, {"type": "Feature", "properties": {"name": "", "place": "village"}, "geometry": {"type": "Point", "coordinates": [88.8385483, 27.1631739]}}, {"type": "Feature", "properties": {"name": "", "place": "village"}, "geometry": {"type": "Point", "coordinates": [88.7135163, 27.2797556]}}, {"type": "Feature", "properties": {"name": "Thagpzosa", "place": "hamlet"}, "geometry": {"type": "Point", "coordinates": [88.8903313, 27.1369314]}}, {"type": "Feature", "properties": {"name": "Miglamthang-Thangpzosa", "place": "village"}, "geometry": {"type": "Point", "coordinates": [88.8973502, 27.1510414]}}, {"type": "Feature", "properties": {"name": "Targothang", "place": "hamlet"}, "geometry": {"type": "Point", "coordinates": [88.8663592, 27.1573556]}}, {"type": "Feature", "properties": {"name": "Bichgaun", "place": "hamlet"}, "geometry": {"type": "Point", "coordinates": [88.8344322, 27.1797798]}}, {"type": "Feature", "properties": {"name": "Karmaling", "place": "village"}, "geometry": {"type": "Point", "coordinates": [88.8555324, 27.1204516]}}, {"type": "Feature", "properties": {"name": "Norgeygang", "place": "village"}, "geometry": {"type": "Point", "coordinates": [88.8483354, 27.1251166]}}, {"type": "Feature", "properties": {"name": "Samphelgang", "place": "village"}, "geometry": {"type": "Point", "coordinates": [88.8453086, 27.1264595]}}, {"type": "Feature", "properties": {"name": "Migphelgang", "place": "village"}, "geometry": {"type": "Point", "coordinates": [88.8545122, 27.1290662]}}, {"type": "Feature", "properties": {"name": "Paren", "place": "village"}, "geometry": {"type": "Point", "coordinates": [88.8734078, 27.0636736]}}, {"type": "Feature", "properties": {"name": "Bindu", "place": "village"}, "geometry": {"type": "Point", "coordinates": [88.8716429, 27.0986121]}}, {"type": "Feature", "properties": {"name": "Rongo", "place": "village"}, "geometry": {"type": "Point", "coordinates": [88.8358784, 27.0385628]}}, {"type": "Feature", "properties": {"name": "", "place": "hamlet"}, "geometry": {"type": "Point", "coordinates": [88.6725372, 27.2170208]}}, {"type": "Feature", "properties": {"name": "", "place": "village"}, "geometry": {"type": "Point", "coordinates": [88.6636484, 27.2131137]}}, {"type": "Feature", "properties": {"name": "", "place": "village"}, "geometry": {"type": "Point", "coordinates": [88.6651504, 27.218533]}}, {"type": "Feature", "properties": {"name": "Passingdong", "place": "village"}, "geometry": {"type": "Point", "coordinates": [88.5143684, 27.5280875]}}, {"type": "Feature", "properties": {"name": "Lingthem", "place": "village"}, "geometry": {"type": "Point", "coordinates": [88.5013279, 27.5228907]}}, {"type": "Feature", "properties": {"name": "Rongek", "place": "village"}, "geometry": {"type": "Point", "coordinates": [88.6504626, 27.3459444]}}, {"type": "Feature", "properties": {"name": "Samdong", "place": "village"}, "geometry": {"type": "Point", "coordinates": [88.5136592, 27.3762929]}}, {"type": "Feature", "properties": {"name": "Penlong", "place": "village"}, "geometry": {"type": "Point", "coordinates": [88.6024403, 27.3725105]}}, {"type": "Feature", "properties": {"name": "Poobong", "place": "village"}, "geometry": {"type": "Point", "coordinates": [88.1944799, 26.9976604]}}, {"type": "Feature", "properties": {"name": "Rangli Rangliot", "place": "village"}, "geometry": {"type": "Point", "coordinates": [88.346976, 27.0253936]}}, {"type": "Feature", "properties": {"name": "Patharjhora Tea Garden", "place": "village"}, "geometry": {"type": "Point", "coordinates": [88.6552848, 26.9498242]}}, {"type": "Feature", "properties": {"name": "Turibari", "place": "village"}, "geometry": {"type": "Point", "coordinates": [88.6463424, 26.9186014]}}, {"type": "Feature", "properties": {"name": "Manabari", "place": "village"}, "geometry": {"type": "Point", "coordinates": [88.6339696, 26.9009512]}}, {"type": "Feature", "properties": {"name": "Menglass Tea Garden", "place": "village"}, "geometry": {"type": "Point", "coordinates": [88.6952008, 26.9148904]}}, {"type": "Feature", "properties": {"name": "Dalingkote Tea Garden", "place": "village"}, "geometry": {"type": "Point", "coordinates": [88.7223978, 26.9165478]}}, {"type": "Feature", "properties": {"name": "Syli Tea Garden", "place": "village"}, "geometry": {"type": "Point", "coordinates": [88.6752352, 26.9037192]}}, {"type": "Feature", "properties": {"name": "Gurjang Jhora Tea Garden", "place": "village"}, "geometry": {"type": "Point", "coordinates": [88.7304387, 26.9027365]}}, {"type": "Feature", "properties": {"name": "Malnadi Tea Garden", "place": "village"}, "geometry": {"type": "Point", "coordinates": [88.7379322, 26.9086799]}}, {"type": "Feature", "properties": {"name": "SRIKHOLA", "place": "hamlet"}, "geometry": {"type": "Point", "coordinates": [88.0763675, 27.1319309]}}, {"type": "Feature", "properties": {"name": "SEPI", "place": "hamlet"}, "geometry": {"type": "Point", "coordinates": [88.0796184, 27.1273047]}}, {"type": "Feature", "properties": {"name": "BICHGAON", "place": "hamlet"}, "geometry": {"type": "Point", "coordinates": [88.0734714, 27.1317149]}}, {"type": "Feature", "properties": {"name": "\u6bd4\u6bd4\u5858", "place": "hamlet"}, "geometry": {"type": "Point", "coordinates": [88.9247023, 27.4464503]}}, {"type": "Feature", "properties": {"name": "Changgu", "place": "village"}, "geometry": {"type": "Point", "coordinates": [88.7709213, 27.3778843]}}, {"type": "Feature", "properties": {"name": "Tumlong", "place": "hamlet"}, "geometry": {"type": "Point", "coordinates": [88.5796567, 27.4201667]}}, {"type": "Feature", "properties": {"name": "Daling", "place": "village"}, "geometry": {"type": "Point", "coordinates": [88.717752, 26.9976947]}}, {"type": "Feature", "properties": {"name": "Kupup", "place": "village"}, "geometry": {"type": "Point", "coordinates": [88.8396693, 27.35065]}}, {"type": "Feature", "properties": {"name": "Sillery Gaon", "place": "village"}, "geometry": {"type": "Point", "coordinates": [88.5803611, 27.1397277]}}, {"type": "Feature", "properties": {"name": "Nagri", "place": "village"}, "geometry": {"type": "Point", "coordinates": [88.2089111, 26.9148865]}}, {"type": "Feature", "properties": {"name": "Simana", "place": "village"}, "geometry": {"type": "Point", "coordinates": [88.1356918, 26.9846521]}}, {"type": "Feature", "properties": {"name": "\u091c\u094b\u0930\u0947\u092a\u094b\u0916\u0930\u0940", "place": "village"}, "geometry": {"type": "Point", "coordinates": [88.1572352, 26.9908763]}}, {"type": "Feature", "properties": {"name": "Kardo", "place": "hamlet"}, "geometry": {"type": "Point", "coordinates": [88.9928788, 26.9492965]}}, {"type": "Feature", "properties": {"name": "", "place": "hamlet"}, "geometry": {"type": "Point", "coordinates": [88.9825749, 27.0105482]}}, {"type": "Feature", "properties": {"name": "", "place": "hamlet"}, "geometry": {"type": "Point", "coordinates": [88.9724884, 27.0475899]}}, {"type": "Feature", "properties": {"name": "", "place": "hamlet"}, "geometry": {"type": "Point", "coordinates": [88.9743626, 27.0427072]}}, {"type": "Feature", "properties": {"name": "", "place": "hamlet"}, "geometry": {"type": "Point", "coordinates": [88.9677927, 27.0326884]}}, {"type": "Feature", "properties": {"name": "", "place": "village"}, "geometry": {"type": "Point", "coordinates": [88.9734328, 27.0308698]}}, {"type": "Feature", "properties": {"name": "", "place": "hamlet"}, "geometry": {"type": "Point", "coordinates": [88.9819387, 27.0202357]}}, {"type": "Feature", "properties": {"name": "", "place": "hamlet"}, "geometry": {"type": "Point", "coordinates": [88.9846215, 27.0166567]}}, {"type": "Feature", "properties": {"name": "", "place": "hamlet"}, "geometry": {"type": "Point", "coordinates": [88.9787626, 27.009962]}}, {"type": "Feature", "properties": {"name": "", "place": "hamlet"}, "geometry": {"type": "Point", "coordinates": [88.9766583, 27.0083864]}}, {"type": "Feature", "properties": {"name": "", "place": "hamlet"}, "geometry": {"type": "Point", "coordinates": [88.9774883, 27.0183305]}}, {"type": "Feature", "properties": {"name": "", "place": "hamlet"}, "geometry": {"type": "Point", "coordinates": [88.9715456, 27.0155429]}}, {"type": "Feature", "properties": {"name": "Rinchingpong", "place": "village"}, "geometry": {"type": "Point", "coordinates": [88.2703951, 27.2426381]}}, {"type": "Feature", "properties": {"name": "\u82e5\u6728\u65b0\u6751", "place": "hamlet"}, "geometry": {"type": "Point", "coordinates": [88.6100263, 28.1580112]}}, {"type": "Feature", "properties": {"name": "\u5409\u6c5d\u6751", "place": "village"}, "geometry": {"type": "Point", "coordinates": [88.580155, 28.1969228]}}, {"type": "Feature", "properties": {"name": "Gnon-Sangdong, Lower Dzongu", "place": "village"}, "geometry": {"type": "Point", "coordinates": [88.5033626, 27.4542991]}}, {"type": "Feature", "properties": {"name": "Lingzya", "place": "village"}, "geometry": {"type": "Point", "coordinates": [88.4534305, 27.5564446]}}, {"type": "Feature", "properties": {"name": "", "place": "village"}, "geometry": {"type": "Point", "coordinates": [87.9247641, 26.9160607]}}, {"type": "Feature", "properties": {"name": "", "place": "village"}, "geometry": {"type": "Point", "coordinates": [87.927998, 26.9232158]}}, {"type": "Feature", "properties": {"name": "Gnon", "place": "village"}, "geometry": {"type": "Point", "coordinates": [88.5055448, 27.4468505]}}, {"type": "Feature", "properties": {"name": "Sudur", "place": "village"}, "geometry": {"type": "Point", "coordinates": [88.5113495, 27.4734105]}}, {"type": "Feature", "properties": {"name": "Rapchyong", "place": "village"}, "geometry": {"type": "Point", "coordinates": [88.5088389, 27.4700408]}}, {"type": "Feature", "properties": {"name": "Bringbong", "place": "village"}, "geometry": {"type": "Point", "coordinates": [88.5214453, 27.4775416]}}, {"type": "Feature", "properties": {"name": "\u8fbe\u9686", "place": "hamlet"}, "geometry": {"type": "Point", "coordinates": [88.9585223, 27.6733815]}}, {"type": "Feature", "properties": {"name": "\u66f2\u601d\u51ac", "place": "village"}, "geometry": {"type": "Point", "coordinates": [88.9316428, 27.6179332]}}, {"type": "Feature", "properties": {"name": "Ambioch", "place": "village"}, "geometry": {"type": "Point", "coordinates": [88.7005469, 27.0069614]}}, {"type": "Feature", "properties": {"name": "\u70d4\u560e\u6851\u5df4", "place": "hamlet"}, "geometry": {"type": "Point", "coordinates": [88.9636085, 27.4374396]}}, {"type": "Feature", "properties": {"name": "\u618b\u560e\u67e5", "place": "hamlet"}, "geometry": {"type": "Point", "coordinates": [88.9763664, 27.4420137]}}, {"type": "Feature", "properties": {"name": "Bamzey", "place": "hamlet"}, "geometry": {"type": "Point", "coordinates": [88.5446814, 27.9014906]}}, {"type": "Feature", "properties": {"name": "Sampheling", "place": "village"}, "geometry": {"type": "Point", "coordinates": [88.8490569, 27.1213407]}}, {"type": "Feature", "properties": {"name": "Shago", "place": "hamlet"}, "geometry": {"type": "Point", "coordinates": [88.9191019, 27.1619798]}}, {"type": "Feature", "properties": {"name": "Khangthoksumpa", "place": "village"}, "geometry": {"type": "Point", "coordinates": [88.9543462, 27.0135419]}}, {"type": "Feature", "properties": {"name": "Tirsuley", "place": "village"}, "geometry": {"type": "Point", "coordinates": [88.9474797, 27.0096612]}}, {"type": "Feature", "properties": {"name": "Gairikhola", "place": "hamlet"}, "geometry": {"type": "Point", "coordinates": [88.950657, 27.0191771]}}, {"type": "Feature", "properties": {"name": "Neopani", "place": "hamlet"}, "geometry": {"type": "Point", "coordinates": [88.9500016, 27.0252713]}}, {"type": "Feature", "properties": {"name": "Tshosarling", "place": "village"}, "geometry": {"type": "Point", "coordinates": [88.937695, 27.0259431]}}, {"type": "Feature", "properties": {"name": "Gurpishey", "place": "village"}, "geometry": {"type": "Point", "coordinates": [88.9364344, 27.0290874]}}, {"type": "Feature", "properties": {"name": "Kangrey", "place": "village"}, "geometry": {"type": "Point", "coordinates": [88.9396611, 27.031178]}}, {"type": "Feature", "properties": {"name": "Katike", "place": "village"}, "geometry": {"type": "Point", "coordinates": [88.9423634, 27.0317514]}}, {"type": "Feature", "properties": {"name": "Throdni", "place": "village"}, "geometry": {"type": "Point", "coordinates": [88.9482307, 27.0603297]}}, {"type": "Feature", "properties": {"name": "Kholkharka", "place": "village"}, "geometry": {"type": "Point", "coordinates": [88.9464283, 27.0572722]}}, {"type": "Feature", "properties": {"name": "Tsholingkhar", "place": "village"}, "geometry": {"type": "Point", "coordinates": [88.9539814, 27.0624125]}}, {"type": "Feature", "properties": {"name": "Niguri", "place": "village"}, "geometry": {"type": "Point", "coordinates": [88.9618778, 27.0550555]}}, {"type": "Feature", "properties": {"name": "Setikhola", "place": "village"}, "geometry": {"type": "Point", "coordinates": [88.9581227, 27.0527242]}}, {"type": "Feature", "properties": {"name": "Bijubatar", "place": "village"}, "geometry": {"type": "Point", "coordinates": [88.9518785, 27.0482714]}}, {"type": "Feature", "properties": {"name": "Lamipokhori", "place": "village"}, "geometry": {"type": "Point", "coordinates": [88.9460099, 27.0450226]}}, {"type": "Feature", "properties": {"name": "Sernyagang", "place": "village"}, "geometry": {"type": "Point", "coordinates": [88.9413643, 27.0393846]}}, {"type": "Feature", "properties": {"name": "Depheling", "place": "village"}, "geometry": {"type": "Point", "coordinates": [88.9581871, 26.9742504]}}, {"type": "Feature", "properties": {"name": "Khamzangling", "place": "hamlet"}, "geometry": {"type": "Point", "coordinates": [88.9498508, 26.9747954]}}, {"type": "Feature", "properties": {"name": "Khangzhima", "place": "village"}, "geometry": {"type": "Point", "coordinates": [88.950355, 26.9887258]}}, {"type": "Feature", "properties": {"name": "Joenleksa", "place": "village"}, "geometry": {"type": "Point", "coordinates": [88.9532304, 26.9988785]}}, {"type": "Feature", "properties": {"name": "Kharsaling", "place": "village"}, "geometry": {"type": "Point", "coordinates": [88.9418471, 26.9981042]}}, {"type": "Feature", "properties": {"name": "Tharphu", "place": "hamlet"}, "geometry": {"type": "Point", "coordinates": [88.9368045, 26.9893377]}}, {"type": "Feature", "properties": {"name": "Katrepakha", "place": "village"}, "geometry": {"type": "Point", "coordinates": [88.9319658, 26.9903319]}}, {"type": "Feature", "properties": {"name": "Lolegaon", "place": "village"}, "geometry": {"type": "Point", "coordinates": [88.5650162, 27.0204132]}}, {"type": "Feature", "properties": {"name": "\u67e5\u679c\u62c9", "place": "village"}, "geometry": {"type": "Point", "coordinates": [88.9227893, 28.0766527]}}, {"type": "Feature", "properties": {"name": "Daduwachok", "place": "hamlet"}, "geometry": {"type": "Point", "coordinates": [88.0127539, 27.278697]}}, {"type": "Feature", "properties": {"name": "Kandan", "place": "hamlet"}, "geometry": {"type": "Point", "coordinates": [87.9854179, 27.2632886]}}, {"type": "Feature", "properties": {"name": "Magargau", "place": "hamlet"}, "geometry": {"type": "Point", "coordinates": [87.9799507, 27.2531652]}}, {"type": "Feature", "properties": {"name": "Samarjun", "place": "hamlet"}, "geometry": {"type": "Point", "coordinates": [87.975741, 27.2603728]}}, {"type": "Feature", "properties": {"name": "Sisne", "place": "hamlet"}, "geometry": {"type": "Point", "coordinates": [87.9756726, 27.2634845]}}, {"type": "Feature", "properties": {"name": "Sugure", "place": "hamlet"}, "geometry": {"type": "Point", "coordinates": [87.9680869, 27.2608375]}}, {"type": "Feature", "properties": {"name": "Ekrate", "place": "hamlet"}, "geometry": {"type": "Point", "coordinates": [87.9651893, 27.252172]}}, {"type": "Feature", "properties": {"name": "Chyanthapu", "place": "village"}, "geometry": {"type": "Point", "coordinates": [87.9541546, 27.2635164]}}, {"type": "Feature", "properties": {"name": "Chamilindada", "place": "village"}, "geometry": {"type": "Point", "coordinates": [87.9589886, 27.2564045]}}, {"type": "Feature", "properties": {"name": "Perunge", "place": "village"}, "geometry": {"type": "Point", "coordinates": [87.9531478, 27.2523041]}}, {"type": "Feature", "properties": {"name": "Kopche", "place": "hamlet"}, "geometry": {"type": "Point", "coordinates": [87.9440403, 27.249976]}}, {"type": "Feature", "properties": {"name": "Sisne", "place": "hamlet"}, "geometry": {"type": "Point", "coordinates": [87.9385822, 27.2543315]}}, {"type": "Feature", "properties": {"name": "Thingepur", "place": "hamlet"}, "geometry": {"type": "Point", "coordinates": [87.9338349, 27.2633433]}}, {"type": "Feature", "properties": {"name": "Dhunge", "place": "village"}, "geometry": {"type": "Point", "coordinates": [87.9002936, 27.2718812]}}, {"type": "Feature", "properties": {"name": "Phaklun", "place": "hamlet"}, "geometry": {"type": "Point", "coordinates": [87.9106813, 27.2758996]}}, {"type": "Feature", "properties": {"name": "Sereja", "place": "village"}, "geometry": {"type": "Point", "coordinates": [87.9206771, 27.2758814]}}, {"type": "Feature", "properties": {"name": "Buduksin", "place": "hamlet"}, "geometry": {"type": "Point", "coordinates": [87.9215883, 27.2872987]}}, {"type": "Feature", "properties": {"name": "Ukhubari", "place": "hamlet"}, "geometry": {"type": "Point", "coordinates": [87.9303359, 27.2961556]}}, {"type": "Feature", "properties": {"name": "Lokumba", "place": "hamlet"}, "geometry": {"type": "Point", "coordinates": [87.9502274, 27.2934038]}}, {"type": "Feature", "properties": {"name": "Muklabu", "place": "village"}, "geometry": {"type": "Point", "coordinates": [87.9666335, 27.2868659]}}, {"type": "Feature", "properties": {"name": "Odare", "place": "hamlet"}, "geometry": {"type": "Point", "coordinates": [87.9504369, 27.2872076]}}, {"type": "Feature", "properties": {"name": "Nekhewa", "place": "hamlet"}, "geometry": {"type": "Point", "coordinates": [87.9367598, 27.2723687]}}, {"type": "Feature", "properties": {"name": "Biruwa", "place": "hamlet"}, "geometry": {"type": "Point", "coordinates": [87.9476304, 27.2584137]}}, {"type": "Feature", "properties": {"name": "Newargau", "place": "hamlet"}, "geometry": {"type": "Point", "coordinates": [87.9516124, 27.2689381]}}, {"type": "Feature", "properties": {"name": "Sagadada", "place": "hamlet"}, "geometry": {"type": "Point", "coordinates": [87.9725518, 27.2743415]}}, {"type": "Feature", "properties": {"name": "Sisne", "place": "hamlet"}, "geometry": {"type": "Point", "coordinates": [87.9695767, 27.278902]}}, {"type": "Feature", "properties": {"name": "Gangawa", "place": "hamlet"}, "geometry": {"type": "Point", "coordinates": [87.9718593, 27.2961738]}}, {"type": "Feature", "properties": {"name": "Baiheni", "place": "hamlet"}, "geometry": {"type": "Point", "coordinates": [87.9705107, 27.3051765]}}, {"type": "Feature", "properties": {"name": "Nibhare", "place": "hamlet"}, "geometry": {"type": "Point", "coordinates": [87.9755405, 27.3091311]}}, {"type": "Feature", "properties": {"name": "Rabi", "place": "hamlet"}, "geometry": {"type": "Point", "coordinates": [87.9929991, 27.3014656]}}, {"type": "Feature", "properties": {"name": "Beteni", "place": "village"}, "geometry": {"type": "Point", "coordinates": [87.9842607, 27.2990623]}}, {"type": "Feature", "properties": {"name": "Sepi", "place": "village"}, "geometry": {"type": "Point", "coordinates": [87.9885069, 27.2967297]}}, {"type": "Feature", "properties": {"name": "Timbure", "place": "hamlet"}, "geometry": {"type": "Point", "coordinates": [87.9850534, 27.2927386]}}, {"type": "Feature", "properties": {"name": "Kerabari", "place": "hamlet"}, "geometry": {"type": "Point", "coordinates": [87.9376163, 27.3769062]}}, {"type": "Feature", "properties": {"name": "Burumkhim", "place": "hamlet"}, "geometry": {"type": "Point", "coordinates": [87.9253698, 27.3759586]}}, {"type": "Feature", "properties": {"name": "Ramite", "place": "hamlet"}, "geometry": {"type": "Point", "coordinates": [87.9177886, 27.3981007]}}, {"type": "Feature", "properties": {"name": "Timbhure", "place": "hamlet"}, "geometry": {"type": "Point", "coordinates": [87.9114649, 27.3962237]}}, {"type": "Feature", "properties": {"name": "Ambatar", "place": "hamlet"}, "geometry": {"type": "Point", "coordinates": [87.9156017, 27.3828837]}}, {"type": "Feature", "properties": {"name": "Hirintar", "place": "hamlet"}, "geometry": {"type": "Point", "coordinates": [87.9135242, 27.3804234]}}, {"type": "Feature", "properties": {"name": "Malbase", "place": "hamlet"}, "geometry": {"type": "Point", "coordinates": [87.915383, 27.3740268]}}, {"type": "Feature", "properties": {"name": "Surumkhim", "place": "hamlet"}, "geometry": {"type": "Point", "coordinates": [87.91839, 27.3686872]}}, {"type": "Feature", "properties": {"name": "Talkharka", "place": "hamlet"}, "geometry": {"type": "Point", "coordinates": [87.9154924, 27.3642952]}}, {"type": "Feature", "properties": {"name": "Khopi", "place": "hamlet"}, "geometry": {"type": "Point", "coordinates": [87.9041388, 27.3601219]}}, {"type": "Feature", "properties": {"name": "Tawatar", "place": "hamlet"}, "geometry": {"type": "Point", "coordinates": [87.9041935, 27.3843234]}}, {"type": "Feature", "properties": {"name": "Lunthun", "place": "hamlet"}, "geometry": {"type": "Point", "coordinates": [87.9008767, 27.3892256]}}, {"type": "Feature", "properties": {"name": "Makluwa", "place": "hamlet"}, "geometry": {"type": "Point", "coordinates": [87.906107, 27.4530643]}}, {"type": "Feature", "properties": {"name": "Samekham", "place": "hamlet"}, "geometry": {"type": "Point", "coordinates": [87.9155676, 27.4568321]}}, {"type": "Feature", "properties": {"name": "Nepu", "place": "hamlet"}, "geometry": {"type": "Point", "coordinates": [87.9172419, 27.4597343]}}, {"type": "Feature", "properties": {"name": "Ekpakhe", "place": "hamlet"}, "geometry": {"type": "Point", "coordinates": [87.9201213, 27.464345]}}, {"type": "Feature", "properties": {"name": "Khangpachen", "place": "village"}, "geometry": {"type": "Point", "coordinates": [87.9730815, 27.7367593]}}, {"type": "Feature", "properties": {"name": "Yelbong", "place": "village"}, "geometry": {"type": "Point", "coordinates": [88.5709753, 26.9383166]}}, {"type": "Feature", "properties": {"name": "Lava", "place": "village"}, "geometry": {"type": "Point", "coordinates": [88.6604941, 27.0859992]}}, {"type": "Feature", "properties": {"name": "Lamuney", "place": "hamlet"}, "geometry": {"type": "Point", "coordinates": [88.1860367, 27.5456028]}}, {"type": "Feature", "properties": {"name": "Thansing", "place": "hamlet"}, "geometry": {"type": "Point", "coordinates": [88.1839205, 27.5168824]}}, {"type": "Feature", "properties": {"name": "Kokchurung", "place": "hamlet"}, "geometry": {"type": "Point", "coordinates": [88.1753253, 27.5031567]}}, {"type": "Feature", "properties": {"name": "Dzongri", "place": "hamlet"}, "geometry": {"type": "Point", "coordinates": [88.1579986, 27.4816879]}}, {"type": "Feature", "properties": {"name": "Patshaling", "place": "village"}, "geometry": {"type": "Point", "coordinates": [88.8314001, 27.1459569]}}, {"type": "Feature", "properties": {"name": "Kuengaling", "place": "village"}, "geometry": {"type": "Point", "coordinates": [88.8366105, 27.1353079]}}, {"type": "Feature", "properties": {"name": "Thangu", "place": "village"}, "geometry": {"type": "Point", "coordinates": [88.5359631, 27.8924989]}}, {"type": "Feature", "properties": {"name": "Chowrikhang", "place": "hamlet"}, "geometry": {"type": "Point", "coordinates": [88.1293882, 27.5495029]}}, {"type": "Feature", "properties": {"name": "Chhubakha", "place": "hamlet"}, "geometry": {"type": "Point", "coordinates": [88.815369, 27.8241475]}}, {"type": "Feature", "properties": {"name": "Dombang", "place": "hamlet"}, "geometry": {"type": "Point", "coordinates": [88.777401, 27.7456823]}}, {"type": "Feature", "properties": {"name": "", "place": "hamlet"}, "geometry": {"type": "Point", "coordinates": [88.0775439, 26.9549763]}}, {"type": "Feature", "properties": {"name": "", "place": "village"}, "geometry": {"type": "Point", "coordinates": [88.0736196, 26.9626317]}}, {"type": "Feature", "properties": {"name": "Mangalbare", "place": "village"}, "geometry": {"type": "Point", "coordinates": [88.0931146, 26.9641686]}}, {"type": "Feature", "properties": {"name": "Gorkhe Bazar", "place": "hamlet"}, "geometry": {"type": "Point", "coordinates": [88.0775912, 26.9554832]}}, {"type": "Feature", "properties": {"name": "Lingmoo", "place": "village"}, "geometry": {"type": "Point", "coordinates": [88.4709157, 27.3385259]}}, {"type": "Feature", "properties": {"name": "Raley", "place": "village"}, "geometry": {"type": "Point", "coordinates": [88.486815, 27.346385]}}, {"type": "Feature", "properties": {"name": "\u560e\u6797\u5c97\u6751", "place": "village"}, "geometry": {"type": "Point", "coordinates": [88.9582664, 27.511309]}}, {"type": "Feature", "properties": {"name": "\u0938\u0928\u094d\u0926\u0915\u092a\u0941\u0930", "place": "village"}, "geometry": {"type": "Point", "coordinates": [87.9254161, 27.0122248]}}, {"type": "Feature", "properties": {"name": "\u092e\u093e\u0908\u091c\u094b\u0917\u092e\u093e\u0908", "place": "village"}, "geometry": {"type": "Point", "coordinates": [88.0213822, 26.9552389]}}, {"type": "Feature", "properties": {"name": "\u092b\u093e\u0932\u0947\u0932\u0941\u0919", "place": "village"}, "geometry": {"type": "Point", "coordinates": [87.9076967, 27.1918698]}}, {"type": "Feature", "properties": {"name": "Chungthang", "place": "village"}, "geometry": {"type": "Point", "coordinates": [88.6465196, 27.604236]}}, {"type": "Feature", "properties": {"name": "Golitar", "place": "hamlet"}, "geometry": {"type": "Point", "coordinates": [88.5653575, 27.3660147]}}, {"type": "Feature", "properties": {"name": "\u5409\u9a6c\u6751", "place": "hamlet"}, "geometry": {"type": "Point", "coordinates": [88.9147095, 27.4435841]}}, {"type": "Feature", "properties": {"name": "\u786e\u66f2\u70ed", "place": "hamlet"}, "geometry": {"type": "Point", "coordinates": [88.9718965, 27.730562]}}, {"type": "Feature", "properties": {"name": "\u9a6c\u5f53", "place": "hamlet"}, "geometry": {"type": "Point", "coordinates": [88.9677664, 27.7246973]}}, {"type": "Feature", "properties": {"name": "\u9a6c\u5c14\u5f53", "place": "hamlet"}, "geometry": {"type": "Point", "coordinates": [88.9670473, 27.7108718]}}, {"type": "Feature", "properties": {"name": "\u5353\u6728\u96ea", "place": "hamlet"}, "geometry": {"type": "Point", "coordinates": [88.9501226, 27.5137903]}}, {"type": "Feature", "properties": {"name": "\u5e15\u661f", "place": "hamlet"}, "geometry": {"type": "Point", "coordinates": [88.9096421, 27.5236273]}}, {"type": "Feature", "properties": {"name": "\u52a0\u5fb7\u52a0\u5e03", "place": "hamlet"}, "geometry": {"type": "Point", "coordinates": [88.9580655, 27.4089592]}}, {"type": "Feature", "properties": {"name": "New Jhoreni", "place": "hamlet"}, "geometry": {"type": "Point", "coordinates": [87.9164478, 27.4998338]}}, {"type": "Feature", "properties": {"name": "\u5494\u4e0d\u5176", "place": "hamlet"}, "geometry": {"type": "Point", "coordinates": [88.9516615, 27.661797]}}, {"type": "Feature", "properties": {"name": "\u092e\u093e\u0918\u0947 \u0924\u0932\u094d\u0932\u094b \u0917\u093e\u0909\u0901", "place": "village"}, "geometry": {"type": "Point", "coordinates": [88.017457, 26.9012016]}}, {"type": "Feature", "properties": {"name": "\u0924\u0932\u094d\u0932\u094b \u0915\u0947\u0930\u093e\u092c\u093e\u0930\u0940 \u0917\u093e\u0909\u0901", "place": "village"}, "geometry": {"type": "Point", "coordinates": [88.0259459, 26.9068979]}}, {"type": "Feature", "properties": {"name": "\u5e15\u6728\u52a0\u5858", "place": "hamlet"}, "geometry": {"type": "Point", "coordinates": [88.9398132, 27.504761]}}, {"type": "Feature", "properties": {"name": "\u7ed2", "place": "hamlet"}, "geometry": {"type": "Point", "coordinates": [88.5289764, 28.1938788]}}, {"type": "Feature", "properties": {"name": "\u7f8c\u59c6\u6751", "place": "village"}, "geometry": {"type": "Point", "coordinates": [87.956651, 28.1601094]}}, {"type": "Feature", "properties": {"name": "Tumli\u1e45", "place": "hamlet"}, "geometry": {"type": "Point", "coordinates": [88.0689601, 27.0312588]}}, {"type": "Feature", "properties": {"name": "Gur\u00e3se", "place": "hamlet"}, "geometry": {"type": "Point", "coordinates": [88.0744586, 27.027135]}}, {"type": "Feature", "properties": {"name": "Megma", "place": "hamlet"}, "geometry": {"type": "Point", "coordinates": [88.0828861, 27.0239524]}}, {"type": "Feature", "properties": {"name": "\u66f2\u53c2\u5494", "place": "hamlet"}, "geometry": {"type": "Point", "coordinates": [88.9849977, 27.8096015]}}, {"type": "Feature", "properties": {"name": "\u4e0b\u53f8\u9a6c\u793e\u533a", "place": "village"}, "geometry": {"type": "Point", "coordinates": [88.9029121, 27.4862685]}}, {"type": "Feature", "properties": {"name": "\u5409\u70ed\u67e5\u6751", "place": "village"}, "geometry": {"type": "Point", "coordinates": [88.9539476, 27.4097587]}}, {"type": "Feature", "properties": {"name": "\u666e\u6751", "place": "village"}, "geometry": {"type": "Point", "coordinates": [88.3069628, 28.1944823]}}, {"type": "Feature", "properties": {"name": "\u94c1\u5e03\u516c\u6751", "place": "village"}, "geometry": {"type": "Point", "coordinates": [88.2309656, 28.1991574]}}]}