{"type": "FeatureCollection", "features": [{"type": "Feature", "geometry": {"type": "Point", "coordinates": [88.6084736, 27.3427513]}, "properties": {"osm_id": 2405520418, "amenity": "school", "name": "High Secondary School"}}, {"type": "Feature", "geometry": {"type": "Point", "coordinates": [88.6050941, 27.3419841]}, "properties": {"osm_id": 2405520864, "amenity": "school", "name": "Sai Prashanti Vidya Mandir"}}, {"type": "Feature", "geometry": {"type": "Point", "coordinates": [88.264949, 27.0380697]}, "properties": {"osm_id": 3319254758, "amenity": "school", "name": "Bethany school"}}, {"type": "Feature", "geometry": {"type": "Point", "coordinates": [88.2695448, 27.0493571]}, "properties": {"osm_id": 4049685131, "addr:street": "C.R. Das Road", "amenity": "school", "name": "Mahatma Gandhi High School", "name:etymology:wikidata": "Q1001", "opening_hours": "Mo-Fr 10:00-13:00"}}, {"type": "Feature", "geometry": {"type": "Point", "coordinates": [88.2651119, 27.0523334]}, "properties": {"osm_id": 4050426728, "addr:city": "Darjeeling", "addr:postcode": "734101", "addr:street": "Hermitage", "amenity": "school", "name": "Vidya Vikash Academy", "website": "https://www.vidyavikashacademy.com/"}}, {"type": "Feature", "geometry": {"type": "Point", "coordinates": [88.492285, 27.0822633]}, "properties": {"osm_id": 4263896989, "amenity": "school", "name": "Dr grahams historical school"}}, {"type": "Feature", "geometry": {"type": "Point", "coordinates": [88.6135864, 27.3313407]}, "properties": {"osm_id": 4925330128, "amenity": "hospital", "healthcare": "hospital"}}, {"type": "Feature", "geometry": {"type": "Point", "coordinates": [88.2607322, 27.0520839]}, "properties": {"osm_id": 5838575185, "amenity": "school"}}, {"type": "Feature", "geometry": {"type": "Point", "coordinates": [88.2252546, 27.3708529]}, "properties": {"osm_id": 6493516285, "addr:district": "West Sikkim", "addr:postcode": "737113", "addr:state": "Sikkim", "addr:subdistrict": "Gyalshing", "amenity": "hospital", "description": "Primary Health Centre", "healthcare": "centre", "locality": "Yuksam", "name": "Yuksam, PHC", "source": "OpenGovernmentData"}}, {"type": "Feature", "geometry": {"type": "Point", "coordinates": [88.360583, 27.1655039]}, "properties": {"osm_id": 6902545405, "addr:city": "Namchi", "addr:district": "South Sikkim", "addr:full": "Namchi District Hospital, Hospital Road, Namchi", "addr:postcode": "737126", "addr:state": "Sikkim", "amenity": "hospital", "contact:mobile": "7797895320", "contact:phone": "3595264544", "email": "anjurai100@gmail.com", "healthcare": "hospital", "name": "Government General Hospital Blood Bank - Namchi", "opening_hours": "24/7", "operator:type": "government", "source": "OpenGovernmentData"}}, {"type": "Feature", "geometry": {"type": "Point", "coordinates": [88.5975829, 27.3163644]}, "properties": {"osm_id": 6908120518, "addr:district": "East Sikkim", "addr:full": "5Th Mile Tadong, Gangtok", "addr:postcode": "737101", "addr:state": "Sikkim", "ambulance": "yes", "amenity": "hospital", "beds": "550", "description": "Multi-specialty, NABH-accredited hospital with 24/7 emergency, advanced ICUs (ICU, SICU, NICU, PICU, CCU, NSICU, ITU), world-class diagnostics, and digital imaging (first in Sikkim with PACS), attached to Sikkim Manipal University", "emergency": "yes", "fax": "231162", "healthcare": "hospital", "healthcare:speciality": "general;surgery;cardiology;neurosurgery;gastroenterology;blood_donation;maternity;pediatric;radiology;intensive_care", "internet_access": "yes", "laboratory": "yes", "language:en": "yes", "language:hi": "yes", "name": "Central Referral Hospital", "official_name": "Central Referral Hospital (A Constituent Unit Of Sikkim Manipal University)", "opening_hours": "24/7", "operator": "Sikkim Manipal University", "operator:type": "private", "parking": "yes", "pharmacy": "yes", "phone": "18001202114", "staff_count:doctors": "76", "website": "https://smu.edu.in/crh/", "wheelchair": "yes"}}, {"type": "Feature", "geometry": {"type": "Point", "coordinates": [88.5975802, 27.3174225]}, "properties": {"osm_id": 6908120519, "addr:district": "East Sikkim", "addr:full": "SMIMS, 5th Mile, Tadong,East Sikkim", "addr:postcode": "737102", "addr:state": "Sikkim", "amenity": "hospital", "healthcare": "hospital", "name": "Sikkim Manipal Institute of Medical Sciences", "operator:type": "government", "source": "OpenGovernmentData", "website": "www.smims.smu.edu.in"}}, {"type": "Feature", "geometry": {"type": "Point", "coordinates": [88.2492974, 27.1472039]}, "properties": {"osm_id": 6908538585, "amenity": "school", "name": "Government science collage chakunh"}}, {"type": "Feature", "geometry": {"type": "Point", "coordinates": [88.4469913, 27.0528759]}, "properties": {"osm_id": 6937039385, "addr:street": "6th Mile", "amenity": "school", "name": "Gandhi Ashram School", "name:de": "Gandhi Ashram Schule", "operator": "Darjeeling Jesuits"}}, {"type": "Feature", "geometry": {"type": "Point", "coordinates": [88.4723789, 27.0711753]}, "properties": {"osm_id": 7062373773, "addr:district": "Darjeeling", "addr:full": "Shahid D.B.Giri Road , Kalimdong", "addr:postcode": "734301", "addr:state": "West Bengal", "amenity": "clinic", "contact:phone": "3552257743", "name": "Adarsha Nursing Home, Kalimdong", "source": "OpenGovernmentData"}}, {"type": "Feature", "geometry": {"type": "Point", "coordinates": [88.4766126, 27.0733801]}, "properties": {"osm_id": 7065473741, "addr:district": "Darjeeling", "addr:full": "Guruji Pranami Mission Trust,10th Mile, Kalimpong", "addr:postcode": "734301", "addr:state": "West Bengal", "amenity": "hospital", "name": "Seva Sadan Hospital, Darjeeling", "source": "OpenGovernmentData"}}, {"type": "Feature", "geometry": {"type": "Point", "coordinates": [88.2659312, 27.0440174]}, "properties": {"osm_id": 7068848794, "addr:district": "Darjeeling", "addr:full": "7/A Ballenvilla Road", "addr:postcode": "734101", "addr:state": "West Bengal", "amenity": "clinic", "contact:phone": "2257650", "name": "Yuma Nursing Home and Diagnostic Centre Pvt Ltd", "source": "OpenGovernmentData"}}, {"type": "Feature", "geometry": {"type": "Point", "coordinates": [88.2627808, 27.0363081]}, "properties": {"osm_id": 7069095564, "addr:district": "Darjeeling", "addr:full": "Mariam Cottage N B Singh Road Darjeeling", "addr:postcode": "734101", "addr:state": "West Bengal", "amenity": "clinic", "name": "Mariam Nursing Home", "source": "OpenGovernmentData"}}, {"type": "Feature", "geometry": {"type": "Point", "coordinates": [88.256922, 27.291121]}, "properties": {"osm_id": 7118826339, "addr:district": "West Sikkim", "addr:postcode": "737111", "addr:state": "Sikkim", "addr:subdistrict": "Geyzing", "amenity": "hospital", "description": "District Hospital", "locality": "Geyzing", "name": "Geyzing District Hospital", "source": "OpenGovernmentData"}}, {"type": "Feature", "geometry": {"type": "Point", "coordinates": [88.4950137, 27.2298217]}, "properties": {"osm_id": 7118826340, "addr:district": "East Sikkim", "addr:postcode": "737134", "addr:state": "Sikkim", "addr:street": "Singtam District Hospital", "addr:subdistrict": "Gangtok", "amenity": "hospital", "description": "District Hospital", "locality": "Singtam", "name": "Singtam District Hospital", "source": "OpenGovernmentData"}}, {"type": "Feature", "geometry": {"type": "Point", "coordinates": [88.19806, 27.072371]}, "properties": {"osm_id": 7199769364, "addr:district": "Darjiling", "addr:full": "Near Pwd Bunglow, Chainpuray Hospital Line", "addr:postcode": "734201", "addr:state": "West Bengal", "addr:subdistrict": "Darjeeling Pulbazar", "amenity": "hospital", "name": "Bijanbari Rural Hospital", "source": "OpenGovernmentData"}}, {"type": "Feature", "geometry": {"type": "Point", "coordinates": [88.5966385, 27.2968055]}, "properties": {"osm_id": 7209634476, "amenity": "school", "name": "Syari government school", "opening_hours": "Mo-Fr 09:00-04:00; Sa 09:00-02:00"}}, {"type": "Feature", "geometry": {"type": "Point", "coordinates": [88.5982344, 27.2988897]}, "properties": {"osm_id": 7210982285, "amenity": "school", "name": "Sernya English Junior High School"}}, {"type": "Feature", "geometry": {"type": "Point", "coordinates": [88.5950556, 27.3105322]}, "properties": {"osm_id": 7615097178, "addr:district": "East Sikkim", "addr:full": "Metro Point Bus Stop, Lower, Tadong, Gangtok", "addr:postcode": "737102", "addr:state": "Sikkim", "amenity": "clinic", "name": "Neo Dental Clinic", "source": "Local Knowledge"}}, {"type": "Feature", "geometry": {"type": "Point", "coordinates": [88.286698, 27.327142]}, "properties": {"osm_id": 7615097179, "addr:district": "West Sikkim", "addr:full": "Tashiding", "addr:postcode": "737111", "addr:state": "Sikkim", "amenity": "hospital", "name": "Tashiding Hospital", "source": "Local Knowledge"}}, {"type": "Feature", "geometry": {"type": "Point", "coordinates": [88.497779, 27.231534]}, "properties": {"osm_id": 7615097180, "addr:district": "East Sikkim", "addr:full": "Singtam", "addr:postcode": "737134", "addr:state": "Sikkim", "amenity": "clinic", "name": "Drishti Optical Centre", "source": "Local Knowledge"}}, {"type": "Feature", "geometry": {"type": "Point", "coordinates": [88.6149307, 27.333257]}, "properties": {"osm_id": 7615097181, "addr:district": "East Sikkim", "addr:full": "Arithang, Gangtok", "addr:postcode": "737101", "addr:state": "Sikkim", "amenity": "clinic", "name": "Netralaya Eye Clinic and Optical Centre", "source": "Local Knowledge"}}, {"type": "Feature", "geometry": {"type": "Point", "coordinates": [88.6144148, 27.3323733]}, "properties": {"osm_id": 7615097182, "addr:district": "East Sikkim", "addr:full": "NH10, Arithang, Gangtok", "addr:postcode": "737101", "addr:state": "Sikkim", "amenity": "clinic", "name": "Drishyam Eye Care and Surgical Centre", "source": "Local Knowledge"}}, {"type": "Feature", "geometry": {"type": "Point", "coordinates": [88.3750115, 27.1712753]}, "properties": {"osm_id": 7615097183, "addr:district": "South Sikkim", "addr:full": "Namchi", "addr:postcode": "737126", "addr:state": "Sikkim", "amenity": "hospital", "name": "District Hospital", "name:ne": "\u091c\u093f\u0932\u094d\u0932\u093e \u0905\u0938\u094d\u092a\u0924\u093e\u0932", "source": "Local Knowledge"}}, {"type": "Feature", "geometry": {"type": "Point", "coordinates": [88.4964885, 27.2319871]}, "properties": {"osm_id": 7615097184, "addr:district": "East Sikkim", "addr:full": "Singtam", "addr:postcode": "737134", "addr:state": "Sikkim", "amenity": "clinic", "name": "Dr. Manojit Sutradhar's Clinic", "source": "Local Knowledge"}}, {"type": "Feature", "geometry": {"type": "Point", "coordinates": [88.5967021, 27.3130337]}, "properties": {"osm_id": 7615097185, "addr:district": "East Sikkim", "addr:full": "Singtam - Chungthang Road, Tadong, Gangtok", "addr:postcode": "737102", "addr:state": "Sikkim", "amenity": "clinic", "name": "Aashirwad Clinic", "source": "Local Knowledge"}}, {"type": "Feature", "geometry": {"type": "Point", "coordinates": [88.529319, 27.175155]}, "properties": {"osm_id": 7615097186, "addr:district": "East Sikkim", "addr:full": "Lower Bazar, Rangpo", "addr:postcode": "737132", "addr:state": "Sikkim", "amenity": "clinic", "name": "Dhristi Eye Clinic", "source": "Local Knowledge"}}, {"type": "Feature", "geometry": {"type": "Point", "coordinates": [88.6131569, 27.3367271]}, "properties": {"osm_id": 7615097188, "addr:district": "East Sikkim", "addr:full": "Bodhi Marg, Sungava, Gangtok", "addr:postcode": "737101", "addr:state": "Sikkim", "amenity": "clinic", "name": "Dental Clinic", "source": "Local Knowledge"}}, {"type": "Feature", "geometry": {"type": "Point", "coordinates": [88.5508921, 27.7296019]}, "properties": {"osm_id": 7615097189, "addr:district": "North Sikkim", "addr:full": "Gurudongmar Road", "addr:postcode": "737120", "addr:state": "Sikkim", "amenity": "hospital", "name": "Lachen Hospital", "source": "Local Knowledge"}}, {"type": "Feature", "geometry": {"type": "Point", "coordinates": [88.495588, 27.2276025]}, "properties": {"osm_id": 7615097191, "addr:district": "East Sikkim", "addr:full": "Sikkim", "addr:postcode": "737134", "addr:state": "Sikkim", "amenity": "hospital", "name": "Baidhya Ayurvedic Hospital", "source": "Local Knowledge"}}, {"type": "Feature", "geometry": {"type": "Point", "coordinates": [88.61363, 27.3304332]}, "properties": {"osm_id": 7615097193, "addr:district": "East Sikkim", "addr:full": "Arithang, Gangtok", "addr:postcode": "737101", "addr:state": "Sikkim", "amenity": "clinic", "healthcare": "clinic", "name": "Dr. Sumit Periwal Child Care Clinic", "source": "Local Knowledge"}}, {"type": "Feature", "geometry": {"type": "Point", "coordinates": [88.531877, 27.490878]}, "properties": {"osm_id": 7615097197, "addr:district": "North Sikkim", "addr:full": "Mangan", "addr:postcode": "737116", "addr:state": "Sikkim", "amenity": "hospital", "name": "Mangan District Hospital", "source": "Local Knowledge"}}, {"type": "Feature", "geometry": {"type": "Point", "coordinates": [88.597016, 27.314817]}, "properties": {"osm_id": 7615097198, "addr:district": "East Sikkim", "addr:full": "Tadong, Gangtok", "addr:postcode": "737102", "addr:state": "Sikkim", "amenity": "hospital", "name": "Government Hospital", "source": "Local Knowledge"}}, {"type": "Feature", "geometry": {"type": "Point", "coordinates": [88.6136867, 27.3304047]}, "properties": {"osm_id": 7615097202, "addr:district": "East Sikkim", "addr:full": "Arithang, Gangtok", "addr:postcode": "737101", "addr:state": "Sikkim", "amenity": "clinic", "healthcare": "clinic", "name": "Ruchi Diagnostic Clinic", "source": "Local Knowledge"}}, {"type": "Feature", "geometry": {"type": "Point", "coordinates": [88.5987252, 27.2436348]}, "properties": {"osm_id": 7615097203, "addr:district": "East Sikkim", "addr:full": "Pakyong", "addr:postcode": "737106", "addr:state": "Sikkim", "amenity": "hospital", "name": "STNM Multispeciality Hospital", "source": "Local Knowledge"}}, {"type": "Feature", "geometry": {"type": "Point", "coordinates": [88.4966193, 27.2319809]}, "properties": {"osm_id": 7615097205, "addr:district": "East Sikkim", "addr:full": "Singtam", "addr:postcode": "737134", "addr:state": "Sikkim", "amenity": "clinic", "name": "Dr. A. H. Khan's Clinic", "source": "Local Knowledge"}}, {"type": "Feature", "geometry": {"type": "Point", "coordinates": [88.613052, 27.336356]}, "properties": {"osm_id": 7615097208, "addr:district": "East Sikkim", "addr:full": "Upper Sichey, Sungava, Gangtok", "addr:postcode": "737101", "addr:state": "Sikkim", "amenity": "clinic", "name": "ENT Clinic", "source": "Local Knowledge"}}, {"type": "Feature", "geometry": {"type": "Point", "coordinates": [88.245448, 27.289573]}, "properties": {"osm_id": 7615097209, "addr:district": "West Sikkim", "addr:full": "Geyzing", "addr:postcode": "737111", "addr:state": "Sikkim", "amenity": "hospital", "name": "50 Bedded Ayush Hospital", "source": "Local Knowledge"}}, {"type": "Feature", "geometry": {"type": "Point", "coordinates": [88.258366, 27.085975]}, "properties": {"osm_id": 7666886934, "addr:district": "Darjeeling", "addr:full": "Darjeeling - Jorethang Road, Tukvar Tea Garden", "addr:postcode": "734104", "addr:state": "West Bengal", "amenity": "hospital", "name": "Tukvar Hospital", "source": "Local Knowledge"}}, {"type": "Feature", "geometry": {"type": "Point", "coordinates": [88.5976412, 27.3110031]}, "properties": {"osm_id": 8169039986, "amenity": "clinic", "name": "Urban Health Center (govt)"}}, {"type": "Feature", "geometry": {"type": "Point", "coordinates": [88.5951986, 27.3103867]}, "properties": {"osm_id": 8169044947, "amenity": "clinic", "name": "Ayurvedic Health Center OPD"}}, {"type": "Feature", "geometry": {"type": "Point", "coordinates": [88.7531931, 27.3743575]}, "properties": {"osm_id": 8221549795, "amenity": "clinic", "name": "Primary Health Center Chipsu Tsomogo"}}, {"type": "Feature", "geometry": {"type": "Point", "coordinates": [88.6087123, 27.3317133]}, "properties": {"osm_id": 8899693470, "amenity": "school", "name": "Sikkim Government School Arithang"}}, {"type": "Feature", "geometry": {"type": "Point", "coordinates": [88.5054575, 27.4455809]}, "properties": {"osm_id": 9546643227, "amenity": "school", "name": "Gnon-Primary School"}}, {"type": "Feature", "geometry": {"type": "Point", "coordinates": [88.4998463, 27.4181418]}, "properties": {"osm_id": 9546650464, "amenity": "school", "name": "Gor Secondary School Lower Dzongu"}}, {"type": "Feature", "geometry": {"type": "Point", "coordinates": [88.4889874, 27.3863318]}, "properties": {"osm_id": 9546656572, "amenity": "school", "name": "Lum Junior High School"}}, {"type": "Feature", "geometry": {"type": "Point", "coordinates": [88.2213205, 27.3653922]}, "properties": {"osm_id": 10839421206, "amenity": "school", "name": "Yuksom school"}}, {"type": "Feature", "geometry": {"type": "Point", "coordinates": [88.5854504, 27.4191567]}, "properties": {"osm_id": 10917206405, "amenity": "school", "name": "Tumlong school"}}, {"type": "Feature", "geometry": {"type": "Point", "coordinates": [88.5849128, 27.4196393]}, "properties": {"osm_id": 10917735306, "amenity": "school", "name:fr": "\u00c9cole gouvernementale de Tumlong"}}, {"type": "Feature", "geometry": {"type": "Point", "coordinates": [88.3642977, 27.2960846]}, "properties": {"osm_id": 11379294569, "amenity": "school", "name": "Sambhota Tibetan School"}}, {"type": "Feature", "geometry": {"type": "Point", "coordinates": [88.4724495, 27.0733311]}, "properties": {"osm_id": 11381102534, "amenity": "school"}}, {"type": "Feature", "geometry": {"type": "Point", "coordinates": [88.5261775, 27.0711458]}, "properties": {"osm_id": 11607439469, "amenity": "school", "name": "Karmapa Center of Education"}}, {"type": "Feature", "geometry": {"type": "Point", "coordinates": [88.5254526, 27.0594463]}, "properties": {"osm_id": 11625869369, "amenity": "school", "name": "HTNHA Art School"}}, {"type": "Feature", "geometry": {"type": "Point", "coordinates": [88.3136979, 27.2385979]}, "properties": {"osm_id": 11677791974, "amenity": "school", "source": "iCBSE", "website": "https://www.icbse.com/schools/sanganath-ss-pv2g28"}}, {"type": "Feature", "geometry": {"type": "Point", "coordinates": [88.4458653, 27.0528327]}, "properties": {"osm_id": 11815844269, "amenity": "school", "name": "Gandhi Ashram"}}, {"type": "Feature", "geometry": {"type": "Point", "coordinates": [88.5711651, 27.3040169]}, "properties": {"osm_id": 13683901988, "amenity": "school", "name": "Govt Primary school"}}, {"type": "Feature", "geometry": {"type": "Point", "coordinates": [88.5017409, 27.2330874]}, "properties": {"osm_id": 13695502301, "amenity": "school", "name": "Santinagar petrol pump"}}, {"type": "Feature", "geometry": {"type": "Point", "coordinates": [88.2643349, 27.0325069]}, "properties": {"osm_id": 348882942, "amenity": "school", "name": "St. Pauls School", "website": "www.stpaulsdarjeeling.com/"}}, {"type": "Feature", "geometry": {"type": "Point", "coordinates": [88.2639547, 27.0317894]}, "properties": {"osm_id": 348883207, "amenity": "school", "name": "St. Pauls School", "operator": "Jesuits", "website": "www.stpaulsdarjeeling.com/"}}, {"type": "Feature", "geometry": {"type": "Point", "coordinates": [88.2647213, 27.0445161]}, "properties": {"osm_id": 348885962, "amenity": "hospital", "name": "Eden Hospital", "operator:type": "public"}}, {"type": "Feature", "geometry": {"type": "Point", "coordinates": [88.2657862, 27.0462844]}, "properties": {"osm_id": 348887821, "amenity": "school", "name": "St. Robert's School", "wikipedia": "en:St. Roberts School, Darjeeling"}}, {"type": "Feature", "geometry": {"type": "Point", "coordinates": [88.2524997, 27.0625659]}, "properties": {"osm_id": 348909592, "addr:city": "Darjeeling", "addr:postcode": "734104", "addr:street": "North Point", "amenity": "school", "name": "St. Joseph's College - LD Ground", "operator": "Jesuits"}}, {"type": "Feature", "geometry": {"type": "Point", "coordinates": [88.2528112, 27.0614334]}, "properties": {"osm_id": 348912852, "addr:city": "Darjeeling", "addr:postcode": "734104", "addr:street": "North Point", "amenity": "school", "name": "St. Joseph's School (PD Field)", "operator": "Jesuits", "website": "https://www.sjcnorthpoint.com/"}}, {"type": "Feature", "geometry": {"type": "Point", "coordinates": [88.2514661, 27.0642503]}, "properties": {"osm_id": 348916308, "amenity": "school", "name": "MH Buthurey Ground"}}, {"type": "Feature", "geometry": {"type": "Point", "coordinates": [88.2516248, 27.0665379]}, "properties": {"osm_id": 348918702, "amenity": "school", "name": "Mount Hermon School", "wikidata": "Q6921183", "wikipedia": "en:Mount Hermon School, Darjeeling"}}, {"type": "Feature", "geometry": {"type": "Point", "coordinates": [88.263933, 27.0375894]}, "properties": {"osm_id": 348923214, "addr:city": "Darjeeling", "addr:postcode": "734101", "amenity": "school", "name": "Nepali Girls High School", "operator": "Christain Missionary (Protestant)8", "wikipedia": "en:Nepali Girls High School"}}, {"type": "Feature", "geometry": {"type": "Point", "coordinates": [88.2609729, 27.0395998]}, "properties": {"osm_id": 348962073, "amenity": "school", "name": "Government Boys High School"}}, {"type": "Feature", "geometry": {"type": "Point", "coordinates": [88.2630018, 27.0476392]}, "properties": {"osm_id": 349450357, "amenity": "school", "name": "St. Teresa School"}}, {"type": "Feature", "geometry": {"type": "Point", "coordinates": [88.6026462, 27.3466714]}, "properties": {"osm_id": 349556187, "addr:full": "NH-31A, Sochaygang, Gangtok, Sikkim, 737101, India", "ambulance": "yes", "amenity": "hospital", "beds": "1002", "description": "Major government hospital in northeast India, NABH accredited, advanced ICUs, operation theaters, round-the-clock emergency, spacious wards, diagnostics, and modern pharmacy. Tele-consultation available.", "emergency": "yes", "fax": "09845562399", "healthcare": "hospital", "healthcare:speciality": "general;surgery;cardiology;pediatrics;urology;nephrology;radiology;pediatry;maternity;intensive_care;blood_donation", "image": "https://stnmhospital.com/static/images/hospital-exterior.jpg", "internet_access": "yes", "laboratory": "yes", "language:en": "yes", "language:hi": "yes", "language:ne": "yes", "name": "STNM Hospital", "official_name": "Sir Thutob Namgyal Memorial Hospital", "opening_hours": "24/7", "operator": "Government of Sikkim", "operator:type": "government", "parking": "yes", "pharmacy": "yes", "phone": "+919845562399;+913592-202944", "staff_count": "398", "website": "http://sikkimhealth.gov.in/", "wheelchair": "yes"}}, {"type": "Feature", "geometry": {"type": "Point", "coordinates": [88.6113828, 27.3359003]}, "properties": {"osm_id": 349687793, "amenity": "school", "building": "yes", "name": "Palzor Namgyal Girls Secondary School"}}, {"type": "Feature", "geometry": {"type": "Point", "coordinates": [88.2642222, 27.0383309]}, "properties": {"osm_id": 350289106, "amenity": "school", "name": "Turnbull High School"}}, {"type": "Feature", "geometry": {"type": "Point", "coordinates": [88.2637127, 27.0372917]}, "properties": {"osm_id": 350294235, "amenity": "school", "name": "Nepali Girls High School"}}, {"type": "Feature", "geometry": {"type": "Point", "coordinates": [88.2610825, 27.0370474]}, "properties": {"osm_id": 350304685, "amenity": "school", "name": "Maharani Girls' High School", "wikidata": "Q6733301", "wikipedia": "en:Maharani Girls' High School, Darjeeling"}}, {"type": "Feature", "geometry": {"type": "Point", "coordinates": [88.2648569, 27.0332463]}, "properties": {"osm_id": 350312500, "amenity": "school", "name": "St. Pauls School"}}, {"type": "Feature", "geometry": {"type": "Point", "coordinates": [88.2862554, 27.1314759]}, "properties": {"osm_id": 352735397, "amenity": "school"}}, {"type": "Feature", "geometry": {"type": "Point", "coordinates": [88.2609629, 27.2949654]}, "properties": {"osm_id": 452322832, "amenity": "school", "building": "yes"}}, {"type": "Feature", "geometry": {"type": "Point", "coordinates": [88.2434608, 27.2968373]}, "properties": {"osm_id": 455987430, "amenity": "school", "name": "Saint Mary's Convent School"}}, {"type": "Feature", "geometry": {"type": "Point", "coordinates": [88.6154069, 27.1583569]}, "properties": {"osm_id": 496272686, "amenity": "school", "building": "yes"}}, {"type": "Feature", "geometry": {"type": "Point", "coordinates": [88.3700862, 27.1707247]}, "properties": {"osm_id": 497539361, "amenity": "school", "name": "Namchi Public School"}}, {"type": "Feature", "geometry": {"type": "Point", "coordinates": [88.8715509, 27.1211828]}, "properties": {"osm_id": 503710990, "alt_name:en": "Tendu Central School", "amenity": "school", "name": "\u0f56\u0f62\u0f9f\u0f53\u0f0b\u0f60\u0f56\u0fb2\u0f74\u0f42\u0f0b\u0f66\u0fb3\u0f7c\u0f56\u0f0b\u0f42\u0fb2\u0fad\u0f0b\u0f63\u0f9f\u0f0b\u0f56\u0f0d", "name:dz": "\u0f56\u0f62\u0f9f\u0f53\u0f0b\u0f60\u0f56\u0fb2\u0f74\u0f42\u0f0b\u0f66\u0fb3\u0f7c\u0f56\u0f0b\u0f42\u0fb2\u0fad\u0f0b\u0f63\u0f9f\u0f0b\u0f56\u0f0d", "name:en": "Tendruk Central School"}}, {"type": "Feature", "geometry": {"type": "Point", "coordinates": [88.8757319, 27.1270754]}, "properties": {"osm_id": 503713625, "amenity": "hospital", "building": "hospital", "contact:email": "tchoden@samtse.gov.bt", "contact:phone": "+975 17708958", "healthcare": "hospital", "name": "Tendu BHU", "operator": "Thinley Choden (DHO)"}}, {"type": "Feature", "geometry": {"type": "Point", "coordinates": [88.2644827, 27.0396863]}, "properties": {"osm_id": 572594480, "amenity": "school", "name": "Municipal Girls High School", "operator": "Local Municipality"}}, {"type": "Feature", "geometry": {"type": "Point", "coordinates": [88.2643691, 27.0398085]}, "properties": {"osm_id": 572594482, "amenity": "school", "name": "Municipal Girls High School", "operator": "Local Municipality"}}, {"type": "Feature", "geometry": {"type": "Point", "coordinates": [88.2274649, 27.160159]}, "properties": {"osm_id": 575970538, "amenity": "school", "name": "Don Bosco School"}}, {"type": "Feature", "geometry": {"type": "Point", "coordinates": [88.2001532, 27.1713663]}, "properties": {"osm_id": 576578365, "amenity": "school", "name": "Soreng Senior Secondary School"}}, {"type": "Feature", "geometry": {"type": "Point", "coordinates": [88.2939965, 27.1638513]}, "properties": {"osm_id": 663468473, "amenity": "school", "name": "JNV West Sikkim", "name:etymology:wikidata": "Q1047", "name_1": "Jawahar Navodaya Vidyalaya, West Sikkim", "wikidata": "Q59390504", "wikipedia": "en:Jawahar Navodaya Vidyalaya, West Sikkim"}}, {"type": "Feature", "geometry": {"type": "Point", "coordinates": [88.8937653, 27.1471088]}, "properties": {"osm_id": 694755301, "amenity": "school", "name": "Soeltapsa primary school", "website": "https://www.facebook.com/Soeltapsa2011/"}}, {"type": "Feature", "geometry": {"type": "Point", "coordinates": [88.3215659, 27.3237393]}, "properties": {"osm_id": 815289057, "addr:district": "South Sikkim", "addr:full": "Sikkim", "addr:postcode": "737139", "addr:state": "Sikkim", "amenity": "hospital", "building": "yes", "description": "Primary Health Centre", "healthcare": "centre", "name": "Primary Health Centre", "source": "Local Knowledge"}}, {"type": "Feature", "geometry": {"type": "Point", "coordinates": [88.121596, 27.1327591]}, "properties": {"osm_id": 880965330, "amenity": "hospital", "healthcare": "hospital"}}, {"type": "Feature", "geometry": {"type": "Point", "coordinates": [88.5052186, 27.4536761]}, "properties": {"osm_id": 1049523498, "amenity": "school", "name": "Gnon-Sangdong Junior High School"}}, {"type": "Feature", "geometry": {"type": "Point", "coordinates": [88.5054574, 27.4541842]}, "properties": {"osm_id": 1049523504, "amenity": "school"}}, {"type": "Feature", "geometry": {"type": "Point", "coordinates": [88.5053586, 27.4456157]}, "properties": {"osm_id": 1049546577, "amenity": "school"}}, {"type": "Feature", "geometry": {"type": "Point", "coordinates": [88.4864427, 27.4903582]}, "properties": {"osm_id": 1051259986, "amenity": "school", "grades": "1-5", "name": "Mangzing Primary School"}}, {"type": "Feature", "geometry": {"type": "Point", "coordinates": [88.8473804, 27.1257776]}, "properties": {"osm_id": 1122944398, "amenity": "hospital", "building": "hospital", "contact:email": "tchoden@samtse.gov.bt", "contact:phone": "+975 17708958", "healthcare": "hospital", "name": "Bara BHU", "operator": "Thinley Choden (DHO)"}}, {"type": "Feature", "geometry": {"type": "Point", "coordinates": [88.8978424, 27.047471]}, "properties": {"osm_id": 1128379703, "amenity": "hospital", "building": "hospital", "contact:email": "tchoden@samtse.gov.bt", "contact:phone": "+975 17708958", "healthcare": "hospital", "name": "Pemaling BHU", "operator": "Thinley Choden (DHO)"}}, {"type": "Feature", "geometry": {"type": "Point", "coordinates": [88.8836586, 27.0351803]}, "properties": {"osm_id": 1155453376, "amenity": "hospital", "building": "hospital", "healthcare": "hospital", "name": "Sibsoo Hospital"}}, {"type": "Feature", "geometry": {"type": "Point", "coordinates": [88.6135632, 27.3313882]}, "properties": {"osm_id": 1229236232, "amenity": "hospital", "healthcare": "hospital"}}, {"type": "Feature", "geometry": {"type": "Point", "coordinates": [88.2745, 27.2803328]}, "properties": {"osm_id": 1238876936, "amenity": "school", "building": "yes"}}, {"type": "Feature", "geometry": {"type": "Point", "coordinates": [88.8626167, 27.0706482]}, "properties": {"osm_id": 1263137578, "amenity": "school", "name": "Tungsung Primary School"}}, {"type": "Feature", "geometry": {"type": "Point", "coordinates": [88.3649865, 27.3088197]}, "properties": {"osm_id": 1265651908, "amenity": "hospital", "healthcare": "yes", "name": "Health & Wellness Center", "operator": "gouvernement"}}, {"type": "Feature", "geometry": {"type": "Point", "coordinates": [88.9226618, 27.4352419]}, "properties": {"osm_id": 1321610518, "amenity": "school", "name": "\u4e0b\u4e9a\u4e1c\u4e61\u5c0f\u5b66"}}]}