{"type": "FeatureCollection", "features": [{"type": "Feature", "geometry": {"type": "Point", "coordinates": [88.61161, 27.19666]}, "properties": {"osm_id": 342098321, "name": "Rorithang", "name:ne": "\u0930\u094b\u0930\u093f\u0925\u093e\u0919", "name:zh": "\u65e5\u7eb3", "place": "village"}}, {"type": "Feature", "geometry": {"type": "Point", "coordinates": [88.4551789, 27.3114263]}, "properties": {"osm_id": 342098357, "name": "Makha", "place": "village"}}, {"type": "Feature", "geometry": {"type": "Point", "coordinates": [88.3054235, 27.2218926]}, "properties": {"osm_id": 342098371, "name": "Reshi", "name:ne": "\u0930\u0947\u0936\u0940", "place": "village"}}, {"type": "Feature", "geometry": {"type": "Point", "coordinates": [88.27515, 27.28043]}, "properties": {"osm_id": 342098380, "name": "Legship", "name:ne": "\u0932\u0947\u0917\u0938\u0947\u092a", "name:zh": "\u83b1\u683c\u5e0c\u666e", "place": "village"}}, {"type": "Feature", "geometry": {"type": "Point", "coordinates": [88.2761414, 27.13211]}, "properties": {"osm_id": 342098423, "alt_name": "Nayabazar", "name": "Naya Bazaar", "name:bn": "\u09a8\u09af\u09bc\u09be\u09ac\u09be\u099c\u09be\u09b0", "name:ne": "\u0928\u092f\u093e\u0901 \u092c\u091c\u093e\u0930", "name:zh": "\u7eb3\u8036\u5df4\u624e\u5c14", "place": "village", "wikidata": "Q2342123", "wikipedia": "bn:\u09a8\u09af\u09bc\u09be\u09ac\u09be\u099c\u09be\u09b0"}}, {"type": "Feature", "geometry": {"type": "Point", "coordinates": [88.18589, 27.31476]}, "properties": {"osm_id": 342098557, "name": "Rimbi", "name:zh": "\u6797\u6bd4", "place": "village"}}, {"type": "Feature", "geometry": {"type": "Point", "coordinates": [88.2356503, 27.3003722]}, "properties": {"osm_id": 342098565, "name": "Pelling", "name:ne": "\u092a\u0947\u0932\u093f\u0919", "place": "village"}}, {"type": "Feature", "geometry": {"type": "Point", "coordinates": [88.71323, 27.36694]}, "properties": {"osm_id": 342098686, "name": "Kyangsala", "place": "village"}}, {"type": "Feature", "geometry": {"type": "Point", "coordinates": [88.8152126, 27.3803999]}, "properties": {"osm_id": 342098706, "name": "Sherathang", "name:zh": "\u820d\u62c9\u5510", "place": "village", "wikidata": "Q7494668"}}, {"type": "Feature", "geometry": {"type": "Point", "coordinates": [88.7566799, 27.3754372]}, "properties": {"osm_id": 342098725, "name": "Tsomgo", "name:zh": "\u76f4\u53e4", "place": "village"}}, {"type": "Feature", "geometry": {"type": "Point", "coordinates": [88.5224236, 27.4022231]}, "properties": {"osm_id": 342098847, "name": "Dikchu", "place": "village", "wikidata": "Q24929353", "wikipedia": "en:Dikchu"}}, {"type": "Feature", "geometry": {"type": "Point", "coordinates": [88.2184825, 27.3692431]}, "properties": {"osm_id": 496992033, "name": "Yuksom", "name:ne": "\u092f\u094b\u0915\u0938\u092e", "name:zh": "\u5c24\u514b\u677e", "place": "village"}}, {"type": "Feature", "geometry": {"type": "Point", "coordinates": [88.249866, 27.2990627]}, "properties": {"osm_id": 974465706, "name": "Pemayangtse", "name:ne": "\u092a\u0947\u092e\u093e\u092f\u093e\u0919\u094d\u0924\u094d\u0938\u0947", "name:zh": "\u8d1d\u739b\u626c\u6cfd", "place": "village"}}, {"type": "Feature", "geometry": {"type": "Point", "coordinates": [88.3894686, 27.2294294]}, "properties": {"osm_id": 974660324, "name": "Damthang", "name:en": "Damthang", "name:hi": "\u0926\u093e\u092e\u0925\u0902\u0917", "name:ne": "\u0926\u092e\u0925\u093e\u0919", "name:zh": "\u8fbe\u59c6\u5510", "place": "village", "wikidata": "Q5212982", "wikipedia": "en:Damthang, Sikkim"}}, {"type": "Feature", "geometry": {"type": "Point", "coordinates": [88.8140893, 27.6714244]}, "properties": {"osm_id": 1328010316, "name": "Katao", "name:ne": "\u0915\u0924\u094b", "place": "village"}}, {"type": "Feature", "geometry": {"type": "Point", "coordinates": [88.3633001, 27.1025182]}, "properties": {"osm_id": 1477920206, "name": "Manpur", "name:ne": "\u092e\u093e\u0928\u092a\u0941\u0930", "name:zh": "\u66fc\u666e\u5c14", "place": "village"}}, {"type": "Feature", "geometry": {"type": "Point", "coordinates": [88.5294268, 27.5068256]}, "properties": {"osm_id": 1477920225, "name": "Sangkalang", "place": "village"}}, {"type": "Feature", "geometry": {"type": "Point", "coordinates": [88.4374753, 27.1541356]}, "properties": {"osm_id": 1477987344, "name": "Phong", "name:ne": "\u092b\u094b\u0919", "place": "village"}}, {"type": "Feature", "geometry": {"type": "Point", "coordinates": [88.3813601, 27.1160361]}, "properties": {"osm_id": 1477987345, "name": "Sumbuk", "name:ne": "\u0938\u0941\u092e\u094d\u092c\u0941\u0915", "place": "village"}}, {"type": "Feature", "geometry": {"type": "Point", "coordinates": [88.4467864, 27.2284638]}, "properties": {"osm_id": 1478006142, "name": "Pabong", "name:ne": "\u092a\u093e\u092c\u094b\u0919", "place": "village"}}, {"type": "Feature", "geometry": {"type": "Point", "coordinates": [88.4505706, 27.2441608]}, "properties": {"osm_id": 1478006149, "name": "Simchuthang", "name:ne": "\u0938\u093f\u092e\u094d\u091a\u0941\u0925\u093e\u0919", "place": "village"}}, {"type": "Feature", "geometry": {"type": "Point", "coordinates": [88.4216256, 27.2346306]}, "properties": {"osm_id": 1478006150, "name": "Tarku", "place": "village"}}, {"type": "Feature", "geometry": {"type": "Point", "coordinates": [88.4143849, 27.2948923]}, "properties": {"osm_id": 1478006151, "name": "Yangang", "place": "village"}}, {"type": "Feature", "geometry": {"type": "Point", "coordinates": [88.1004238, 28.156498]}, "properties": {"osm_id": 2528193596, "alt_name": "\u7267;\u7267\u6751", "alt_name:bo": "\u0f66\u0fa8\u0f74\u0f42\u0f66", "alt_name:en": "Mu;Muk", "name": "\u59c6\u6751", "name:bo": "\u0f66\u0fa8\u0f74\u0f42", "name:en": "Mugqung", "name:zh": "\u59c6\u6751", "place": "village", "short_name": "\u59c6", "source:name": "GNS", "wikidata": "Q14295988"}}, {"type": "Feature", "geometry": {"type": "Point", "coordinates": [88.1107145, 27.0497922]}, "properties": {"osm_id": 2554084452, "name": "Dhotre", "name:bn": "\u09a7\u09cb\u09a4\u09cd\u09b0\u09c7", "name:ne": "\u0927\u094b\u0924\u094d\u0930\u0947", "name:zh": "\u591a\u7279\u96f7", "place": "village", "website": "http://wikimapia.org/9874553/DHOTRE-the-forest-village"}}, {"type": "Feature", "geometry": {"type": "Point", "coordinates": [88.1115779, 27.1144304]}, "properties": {"osm_id": 2554084504, "name": "Rimbick", "name:bn": "\u09b0\u09bf\u09ae\u09cd\u09ac\u09bf\u0995", "name:ne": "\u0930\u093f\u092e\u094d\u092c\u093f\u0915", "name:zh": "\u6797\u6bd4\u514b", "place": "village"}}, {"type": "Feature", "geometry": {"type": "Point", "coordinates": [88.0800659, 27.1577152]}, "properties": {"osm_id": 2554092089, "name": "Rammam", "name:bn": "\u09b0\u09ae\u09a8", "name:ne": "\u0930\u092e\u0928", "place": "village"}}, {"type": "Feature", "geometry": {"type": "Point", "coordinates": [88.0718264, 27.1819404]}, "properties": {"osm_id": 2554092102, "name": "Samanden", "name:bn": "\u09b8\u09be\u09ae\u09be\u09a8\u09cd\u09a6\u09c7\u09a8", "name:ne": "\u0938\u092e\u0928\u094d\u0926\u0928", "place": "village"}}, {"type": "Feature", "geometry": {"type": "Point", "coordinates": [88.0719475, 27.1874355]}, "properties": {"osm_id": 2554092126, "name": "Gorkhey", "name:ne": "\u0917\u094b\u0930\u0916\u0947", "place": "village"}}, {"type": "Feature", "geometry": {"type": "Point", "coordinates": [88.5836206, 27.1173436]}, "properties": {"osm_id": 2900638855, "name": "Algarah", "name:bn": "\u0986\u09b2\u0997\u09a1\u09bc", "place": "village"}}, {"type": "Feature", "geometry": {"type": "Point", "coordinates": [88.6341557, 27.2156685]}, "properties": {"osm_id": 3295104378, "addr:postcode": "737133", "name": "Takchang", "name:ne": "\u0924\u093e\u0915\u094d\u091a\u093e\u0919", "name:zh": "\u5854\u514b\u660c", "place": "village", "wikidata": "Q7677532"}}, {"type": "Feature", "geometry": {"type": "Point", "coordinates": [88.0684175, 27.2696795]}, "properties": {"osm_id": 3500665958, "place": "village"}}, {"type": "Feature", "geometry": {"type": "Point", "coordinates": [87.9819801, 28.1628638]}, "properties": {"osm_id": 3512385386, "alt_name": "\u6625\u90a3;\u6625\u90a3\u6751;\u7267\u516c\u793e", "alt_name:en": "Chuna;Dr\u00f6na;Changna;Chunna", "name": "\u695a\u7eb3\u6751", "name:bo": "\u0f42\u0fb2\u0f7c\u0f66\u0f0b\u0f66\u0fa3", "name:en": "Choina", "name:zh": "\u695a\u7eb3\u6751", "place": "village", "short_name": "\u695a\u7eb3", "source:name": "GNS", "wikidata": "Q14295993"}}, {"type": "Feature", "geometry": {"type": "Point", "coordinates": [88.0023087, 28.1659202]}, "properties": {"osm_id": 3512385392, "name": "\u4fc4\u90a3", "name:en": "Ena", "name:zh": "\u4fc4\u90a3", "place": "village", "source:name": "GNS"}}, {"type": "Feature", "geometry": {"type": "Point", "coordinates": [88.650971, 27.2427477]}, "properties": {"osm_id": 3553779892, "place": "village"}}, {"type": "Feature", "geometry": {"type": "Point", "coordinates": [88.6638604, 27.2431209]}, "properties": {"osm_id": 3553785027, "place": "village"}}, {"type": "Feature", "geometry": {"type": "Point", "coordinates": [88.3285701, 27.1550385]}, "properties": {"osm_id": 4217506952, "name": "Assangthang", "name:ne": "\u0905\u0938\u093e\u0919\u094d\u0925\u093e\u0919", "name:zh": "\u963f\u6851\u5510", "place": "village"}}, {"type": "Feature", "geometry": {"type": "Point", "coordinates": [88.492303, 27.217871]}, "properties": {"osm_id": 4491382813, "GNS:id": "12790075", "name": "Burd\u0101ng", "name:ne": "\u092c\u0930\u094d\u0926\u093e\u0919", "place": "village", "source": "GNS"}}, {"type": "Feature", "geometry": {"type": "Point", "coordinates": [88.9447988, 27.4225573]}, "properties": {"osm_id": 4552882619, "GNS:id": "11295714", "alt_name": "Xarri", "alt_name:en": "Shari;Xarri;Xiari", "name": "\u590f\u65e5 \u0f64\u0f62\u0f0b\u0f62\u0f72", "name:bo": "\u0f64\u0f62\u0f0b\u0f62\u0f72", "name:bo-Latn-wylie": "shar ri", "name:en": "Sharri", "name:zh": "\u590f\u65e5", "name:zh-Latn-pinyin": "Xi\u00e0 r\u00ec", "place": "village", "source": "GNS"}}, {"type": "Feature", "geometry": {"type": "Point", "coordinates": [88.9221549, 27.444596]}, "properties": {"osm_id": 4552882631, "GNS:id": "12103150", "alt_name": "\u5207\u9a6c;\u5207\u9a6c\u6751", "alt_name:en": "Qiema;Jema;Chempa;Byema;Pema", "name": "\u5207\u739b\u6751 \u0f56\u0fb1\u0f7a\u0f0b\u0f58", "name:bo": "\u0f56\u0fb1\u0f7a\u0f0b\u0f58", "name:bo-Latn-thl": "j\u00e9 ma", "name:bo-Latn-wylie": "bye ma", "name:de": "Q\u00eama", "name:en": "Chema", "name:zh": "\u5207\u9a6c\u6751", "name:zh-Latn-pinyin": "Qi\u00e8 m\u01ce c\u016bn", "place": "village", "short_name": "\u5207\u9a6c", "source": "GNS", "wikidata": "Q14296220"}}, {"type": "Feature", "geometry": {"type": "Point", "coordinates": [88.9218117, 27.4988296]}, "properties": {"osm_id": 4552882682, "GNS:id": "12103596", "alt_name": "\u73e0\u5409;\u73e0\u5409\u6751;\u5353\u5c45;\u5353\u5c45\u6751", "alt_name:bo": "\u0f42\u0fb2\u0f7c\u0f42\u0f0b\u0f51\u0f40\u0fb1\u0f72\u0f63;\u0f42\u0fb2\u0f7c\u0f0b\u0f51\u0f40\u0fb1\u0f72\u0f63", "alt_name:en": "Zhuji;Choggyi;Cho\u2019gyi;Kyirumtsal;Drogy\u00fc;Zhuoju", "name": "\u73e0\u5c45\u6751 \u0f42\u0fb2\u0f7c\u0f42\u0f0b\u0f51\u0f40\u0fb1\u0f72\u0f63", "name:bo": "\u0f42\u0fb2\u0f7c\u0f0b\u0f62\u0f92\u0fb1\u0f74\u0f51", "name:bo-Latn-wylie": "grog dkyil", "name:de": "Cho\u2019gy\u00fc", "name:en": "Cho\u2019gy\u00fc", "name:zh": "\u73e0\u5c45\u6751", "name:zh-Latn-pinyin": "Zh\u016b j\u016bc\u016bn", "place": "village", "short_name": "\u73e0\u5c45", "source": "GNS", "sources": "KNAB place name database for Xigaze", "wikidata": "Q14296204"}}, {"type": "Feature", "geometry": {"type": "Point", "coordinates": [88.9394375, 27.5172849]}, "properties": {"osm_id": 4552883193, "GNS:id": "12103730", "alt_name:bo": "\u0f51\u0f42\u0f60\u0f0b\u0f58\u0f42\u0f74", "capital": "9", "name": "\u5c97\u53e4\u6751 \u0f66\u0f92\u0f44\u0f0b\u0f51\u0f42\u0f74", "name:bo": "\u0f66\u0f92\u0f44\u0f0b\u0f51\u0f42\u0f74", "name:bo-Latn-wylie": "sgang dgu", "name:en": "Ganggu", "name:zh": "\u5c97\u53e4\u6751", "name:zh-Latn-pinyin": "G\u01ceng g\u01d4c\u016bn", "official_name": "\u5c97\u53e4\u6751", "place": "village", "place:CN": "village", "short_name": "\u5c97\u53e4", "source": "GNS", "wikidata": "Q14296243"}}, {"type": "Feature", "geometry": {"type": "Point", "coordinates": [88.5491178, 27.5171438]}, "properties": {"osm_id": 4571035218, "GNS:id": "-2111444", "alt_name": "Singhik", "name": "Sentam", "name:zh": "\u68ee\u5854\u59c6", "place": "village", "source": "GNS"}}, {"type": "Feature", "geometry": {"type": "Point", "coordinates": [88.6220462, 27.5409131]}, "properties": {"osm_id": 4571035579, "GNS:id": "-2105653", "alt_name": "Nagg Tel", "name": "Nanga", "name:zh": "\u5357\u560e", "place": "village", "source": "GNS"}}, {"type": "Feature", "geometry": {"type": "Point", "coordinates": [88.6117963, 27.1551305]}, "properties": {"osm_id": 4879813354, "name": "Pedong", "name:bn": "\u09aa\u09c7\u09a1\u0982", "name:en": "Pedong", "place": "village"}}, {"type": "Feature", "geometry": {"type": "Point", "coordinates": [88.9110016, 27.4674609]}, "properties": {"osm_id": 5030702264, "alt_name": "\u6625\u57f9;\u6625\u57f9\u6751", "alt_name:en": "Chumbi;Chunbi;Chunpei", "name": "\u6625\u4e15\u6751 \u0f46\u0f74\u0f0b\u0f60\u0f56\u0f72\u0f0b\u0f42\u0fb2\u0f7c\u0f44\u0f0b\u0f5a\u0f7c\u0f0d", "name:bo": "\u0f46\u0f74\u0f0b\u0f60\u0f56\u0f72", "name:en": "Qunbi", "name:zh": "\u6625\u4e15\u6751", "place": "village", "short_name": "\u6625\u4e15", "wikidata": "Q14296202", "wikipedia": "en:Chumbi"}}, {"type": "Feature", "geometry": {"type": "Point", "coordinates": [88.928318, 27.4301802]}, "properties": {"osm_id": 5045843335, "alt_name:en": "Rinchengong;Renginggang", "name": "\u4ec1\u9752\u5c97\u6751 \u0f62\u0f72\u0f53\u0f0b\u0f46\u0f7a\u0f53\u0f0b\u0f66\u0f92\u0f44", "name:bo": "\u0f62\u0f72\u0f53\u0f0b\u0f46\u0f7a\u0f53\u0f0b\u0f66\u0f92\u0f44", "name:bo-Latn-thl": "rin chen gang", "name:bo-Latn-wylie": "rin chen sgang", "name:de": "Rinq\u00eangang", "name:en": "Rinchengang", "name:ru": "\u0420\u0438\u043d\u0447\u0435\u043d\u0433\u0430\u043d\u0433", "name:zh": "\u4ec1\u9752\u5c97\u6751", "name:zh-Latn-pinyin": "R\u00e9n q\u012bng g\u01ceng c\u016bn", "place": "village", "short_name": "\u4ec1\u9752\u5c97", "wikidata": "Q14296215", "wikipedia": "en:Rinchengang"}}, {"type": "Feature", "geometry": {"type": "Point", "coordinates": [88.9651072, 27.5199849]}, "properties": {"osm_id": 5045967558, "alt_name": "\u745e\u670b\u5c97;\u745e\u670b\u5c97\u6751;\u6797\u9a6c\u5858", "alt_name:bo": "\u0f62\u0f74\u0f51\u0f0b\u0f66\u0fb2\u0f74\u0f44\u0f66\u0f0b\u0f66\u0f92\u0f44;\u0f42\u0fb3\u0f72\u0f44\u0f0b\u0f58\u0f0b\u0f50\u0f44", "alt_name:en": "Rubinggang;Ruipenggang;R\u00fcsunggang;R\u00fcnpunggang;R\u00fcsungang;Lingmatang;Linmatang", "capital": "9", "name": "\u5982\u4e19\u5c97\u6751", "name:bo": "\u0f62\u0f74\u0f53\u0f0b\u0f66\u0fa4\u0f74\u0f44\u0f66\u0f0b\u0f66\u0f92\u0f44", "name:en": "R\u00fcnbunggang", "name:zh": "\u5982\u4e19\u5c97\u6751", "name:zh-Latn-pinyin": "R\u00fa b\u01d0ng g\u01ceng c\u016bn", "official_name": "\u5982\u4e19\u5c97\u6751", "place": "village", "place:CN": "village", "wikidata": "Q14296239"}}, {"type": "Feature", "geometry": {"type": "Point", "coordinates": [88.9645278, 27.6906154]}, "properties": {"osm_id": 5045979648, "alt_name:bo": "\u0f66\u0f92\u0f44\u0f0b\u0f51\u0f40\u0f62", "alt_name:en": "Xia Kambu;Khambu me;Xiakangbu;Ganggar", "name": "\u4e0b\u5eb7\u5e03\u6751", "name:bo": "\u0f41\u0f58\u0f0b\u0f56\u0f74\u0f0b\u0f66\u0fa8\u0f51", "name:en": "Kambumai", "name:zh": "\u4e0b\u5eb7\u5e03\u6751", "name:zh-Latn-pinyin": "Xi\u00e0 k\u0101ng b\u00f9c\u016bn", "place": "village", "short_name": "\u4e0b\u5eb7\u5e03", "wikidata": "Q14296259"}}, {"type": "Feature", "geometry": {"type": "Point", "coordinates": [88.8819097, 27.1927388]}, "properties": {"osm_id": 5475067731, "alt_name": "Tshachhu;Asam Dok;Asamdo", "name": "Drogchhen", "name:zh": "\u4e1c\u963f\u6851", "name:zh-Latn-pinyin": "D\u014dng \u0101s\u0101ng", "place": "village"}}, {"type": "Feature", "geometry": {"type": "Point", "coordinates": [88.9150937, 27.0477773]}, "properties": {"osm_id": 5475067780, "place": "village"}}, {"type": "Feature", "geometry": {"type": "Point", "coordinates": [88.8533181, 27.1640644]}, "properties": {"osm_id": 5475067789, "name": "Chamju", "place": "village", "source": "http://greathimalayatrail.com/upload/BT%20SK%20Phari%20Dzong-ng45-4.jpg"}}, {"type": "Feature", "geometry": {"type": "Point", "coordinates": [88.8852246, 27.0404003]}, "properties": {"osm_id": 5475067838, "place": "village"}}, {"type": "Feature", "geometry": {"type": "Point", "coordinates": [88.8732963, 27.0401327]}, "properties": {"osm_id": 5475067864, "name": "Jhalong", "name:bn": "\u099d\u09be\u09b2\u0982", "place": "village", "wikidata": "Q6190815"}}, {"type": "Feature", "geometry": {"type": "Point", "coordinates": [88.9596183, 27.0477391]}, "properties": {"osm_id": 5475067878, "name": "Gangtok", "place": "village"}}, {"type": "Feature", "geometry": {"type": "Point", "coordinates": [88.1994573, 27.1706415]}, "properties": {"osm_id": 5525442757, "name": "Soreng", "name:fa": "\u0633\u0648\u0631\u0650\u0646\u06af", "name:hi": "\u0938\u094b\u0930\u0947\u0902\u0917", "name:ko": "\uc18c\ub81d", "name:ne": "\u0938\u094b\u0930\u0947\u0919", "name:ur": "\u0633\u0648\u0631\u06cc\u0646\u06af", "place": "village"}}, {"type": "Feature", "geometry": {"type": "Point", "coordinates": [88.2368606, 27.1363086]}, "properties": {"osm_id": 5526569892, "name": "Chumbong", "name:ne": "\u091a\u0941\u092e\u094d\u092c\u094b\u0919", "place": "village"}}, {"type": "Feature", "geometry": {"type": "Point", "coordinates": [88.2533777, 27.1502953]}, "properties": {"osm_id": 5526614760, "alt_name": "Chyakhung", "name": "Chakung", "place": "village"}}, {"type": "Feature", "geometry": {"type": "Point", "coordinates": [88.2633501, 27.1450111]}, "properties": {"osm_id": 5528237369, "name": "Zoom", "name:ne": "\u091c\u0941\u092e", "place": "village"}}, {"type": "Feature", "geometry": {"type": "Point", "coordinates": [88.1992078, 27.1821336]}, "properties": {"osm_id": 5532229344, "name": "Singling", "name:ne": "\u0938\u093f\u0919\u094d\u0917\u0932\u093f\u0919", "place": "village"}}, {"type": "Feature", "geometry": {"type": "Point", "coordinates": [88.2072329, 27.2163672]}, "properties": {"osm_id": 5536314733, "name": "Sribadam", "place": "village"}}, {"type": "Feature", "geometry": {"type": "Point", "coordinates": [88.8252278, 27.1108271]}, "properties": {"osm_id": 5641875850, "name": "Todey", "name:bn": "\u099f\u09cb\u09a1\u09c7", "place": "village"}}, {"type": "Feature", "geometry": {"type": "Point", "coordinates": [88.8305057, 27.2016823]}, "properties": {"osm_id": 6480215475, "alt_name": "Chango;Chingu", "name": "Chhu Goo", "place": "village", "source": "http://greathimalayatrail.com/upload/BT%20SK%20Phari%20Dzong-ng45-4.jpg"}}, {"type": "Feature", "geometry": {"type": "Point", "coordinates": [88.9167734, 27.1451026]}, "properties": {"osm_id": 6480578519, "name": "Kachin", "place": "village", "source": "http://greathimalayatrail.com/upload/BT%20SK%20Phari%20Dzong-ng45-4.jpg"}}, {"type": "Feature", "geometry": {"type": "Point", "coordinates": [88.9022211, 27.1510182]}, "properties": {"osm_id": 6480611229, "alt_name": "N. Bindu", "name": "Miglamthang", "place": "village"}}, {"type": "Feature", "geometry": {"type": "Point", "coordinates": [88.9693298, 27.3342]}, "properties": {"osm_id": 6482158108, "alt_name:en": "Natang", "name": "\u90a3\u5858\u6751", "name:en": "Naktang", "name:zh": "\u90a3\u5858\u6751", "name:zh-Latn-pinyin": "N\u00e0 t\u00e1ng", "place": "village", "source": "Survey of India map of Sikkim 1923"}}, {"type": "Feature", "geometry": {"type": "Point", "coordinates": [88.8385483, 27.1631739]}, "properties": {"osm_id": 6517949147, "name:zh": "\u666e\u6d77\u8bfa\u5047", "place": "village"}}, {"type": "Feature", "geometry": {"type": "Point", "coordinates": [88.7135163, 27.2797556]}, "properties": {"osm_id": 6517964553, "name:zh": "\u4f11\u5e86", "place": "village"}}, {"type": "Feature", "geometry": {"type": "Point", "coordinates": [88.8973502, 27.1510414]}, "properties": {"osm_id": 6525383597, "name": "Miglamthang-Thangpzosa", "place": "village"}}, {"type": "Feature", "geometry": {"type": "Point", "coordinates": [88.8555324, 27.1204516]}, "properties": {"osm_id": 6525461550, "alt_name": "Kamigoan", "name": "Karmaling", "place": "village"}}, {"type": "Feature", "geometry": {"type": "Point", "coordinates": [88.8483354, 27.1251166]}, "properties": {"osm_id": 6525461551, "alt_name": "Lower Bara", "name": "Norgeygang", "place": "village"}}, {"type": "Feature", "geometry": {"type": "Point", "coordinates": [88.8453086, 27.1264595]}, "properties": {"osm_id": 6525461552, "alt_name": "Lepchagaon", "name": "Samphelgang", "place": "village"}}, {"type": "Feature", "geometry": {"type": "Point", "coordinates": [88.8545122, 27.1290662]}, "properties": {"osm_id": 6525461553, "alt_name": "Dhakalgang", "name": "Migphelgang", "place": "village"}}, {"type": "Feature", "geometry": {"type": "Point", "coordinates": [88.8734078, 27.0636736]}, "properties": {"osm_id": 6535361116, "name": "Paren", "name:bn": "\u09aa\u09be\u09b0\u09c7\u09a8", "place": "village"}}, {"type": "Feature", "geometry": {"type": "Point", "coordinates": [88.8716429, 27.0986121]}, "properties": {"osm_id": 6535361149, "name": "Bindu", "name:bn": "\u09ac\u09bf\u09a8\u09cd\u09a6\u09c1", "place": "village", "wikidata": "Q4914050"}}, {"type": "Feature", "geometry": {"type": "Point", "coordinates": [88.8358784, 27.0385628]}, "properties": {"osm_id": 6535361155, "name": "Rongo", "name:bn": "\u09b0\u0999\u09cd\u0997\u09cb", "place": "village"}}, {"type": "Feature", "geometry": {"type": "Point", "coordinates": [88.6636484, 27.2131137]}, "properties": {"osm_id": 6536850481, "place": "village"}}, {"type": "Feature", "geometry": {"type": "Point", "coordinates": [88.6651504, 27.218533]}, "properties": {"osm_id": 6536850482, "place": "village"}}, {"type": "Feature", "geometry": {"type": "Point", "coordinates": [88.5143684, 27.5280875]}, "properties": {"osm_id": 6545133798, "name": "Passingdong", "place": "village"}}, {"type": "Feature", "geometry": {"type": "Point", "coordinates": [88.5013279, 27.5228907]}, "properties": {"osm_id": 6545164972, "name": "Lingthem", "place": "village"}}, {"type": "Feature", "geometry": {"type": "Point", "coordinates": [88.6504626, 27.3459444]}, "properties": {"osm_id": 6617643134, "name": "Rongek", "name:ne": "\u0930\u094b\u0919\u094d\u0917\u0947\u0915", "place": "village"}}, {"type": "Feature", "geometry": {"type": "Point", "coordinates": [88.5136592, 27.3762929]}, "properties": {"osm_id": 6617643281, "name": "Samdong", "place": "village"}}, {"type": "Feature", "geometry": {"type": "Point", "coordinates": [88.6024403, 27.3725105]}, "properties": {"osm_id": 6617643299, "name": "Penlong", "place": "village"}}, {"type": "Feature", "geometry": {"type": "Point", "coordinates": [88.7709213, 27.3778843]}, "properties": {"osm_id": 8568637913, "alt_name": "Changu", "name": "Changgu", "name:en": "Changgu", "place": "village"}}, {"type": "Feature", "geometry": {"type": "Point", "coordinates": [88.8396693, 27.35065]}, "properties": {"osm_id": 9212717346, "name": "Kupup", "place": "village"}}, {"type": "Feature", "geometry": {"type": "Point", "coordinates": [88.5803611, 27.1397277]}, "properties": {"osm_id": 9313388764, "name": "Sillery Gaon", "place": "village"}}, {"type": "Feature", "geometry": {"type": "Point", "coordinates": [88.2703951, 27.2426381]}, "properties": {"osm_id": 9351622454, "alt_name": "Rinchenpong", "name": "Rinchingpong", "name:zh": "\u6797\u9752\u84ec", "place": "village"}}, {"type": "Feature", "geometry": {"type": "Point", "coordinates": [88.5033626, 27.4542991]}, "properties": {"osm_id": 9534144197, "name": "Gnon-Sangdong, Lower Dzongu", "place": "village"}}, {"type": "Feature", "geometry": {"type": "Point", "coordinates": [88.4534305, 27.5564446]}, "properties": {"osm_id": 9534195011, "name": "Lingzya", "place": "village"}}, {"type": "Feature", "geometry": {"type": "Point", "coordinates": [88.5055448, 27.4468505]}, "properties": {"osm_id": 9645176146, "name": "Gnon", "place": "village"}}, {"type": "Feature", "geometry": {"type": "Point", "coordinates": [88.5113495, 27.4734105]}, "properties": {"osm_id": 9645284999, "name": "Sudur", "place": "village"}}, {"type": "Feature", "geometry": {"type": "Point", "coordinates": [88.5088389, 27.4700408]}, "properties": {"osm_id": 9645309731, "name": "Rapchyong", "place": "village"}}, {"type": "Feature", "geometry": {"type": "Point", "coordinates": [88.5214453, 27.4775416]}, "properties": {"osm_id": 9645314763, "name": "Bringbong", "place": "village"}}, {"type": "Feature", "geometry": {"type": "Point", "coordinates": [88.9316428, 27.6179332]}, "properties": {"osm_id": 9909911360, "alt_name": "\u4e0b\u5eb7\u5e03", "alt_name:bo": "\u0f41\u0f58\u0f0b\u0f56\u0f74\u0f0b\u0f66\u0fa8\u0f51", "alt_name:bo-Latn-wylie": "kham bu smad", "alt_name:en": "Kambumai;Kambume;Xiakambu;Xiakangbu", "name": "\u66f2\u601d\u51ac", "name:bo": "\u0f66\u0f92\u0f44\u0f0b\u0f51\u0f40\u0f62", "name:bo-Latn-wylie": "sgang dkar", "name:en": "Ganggar", "name:zh": "\u66f2\u601d\u51ac", "name:zh-Latn-pinyin": "Xi\u00e0 k\u0101ng b\u00f9", "place": "village"}}, {"type": "Feature", "geometry": {"type": "Point", "coordinates": [88.8490569, 27.1213407]}, "properties": {"osm_id": 10267071739, "alt_name": "Lower Bara", "name": "Sampheling", "place": "village"}}, {"type": "Feature", "geometry": {"type": "Point", "coordinates": [88.9396611, 27.031178]}, "properties": {"osm_id": 10536705762, "name": "Kangrey", "place": "village"}}, {"type": "Feature", "geometry": {"type": "Point", "coordinates": [88.9423634, 27.0317514]}, "properties": {"osm_id": 10536705763, "name": "Katike", "place": "village"}}, {"type": "Feature", "geometry": {"type": "Point", "coordinates": [88.9482307, 27.0603297]}, "properties": {"osm_id": 10536705764, "name": "Throdni", "place": "village"}}, {"type": "Feature", "geometry": {"type": "Point", "coordinates": [88.9464283, 27.0572722]}, "properties": {"osm_id": 10536705765, "name": "Kholkharka", "place": "village"}}, {"type": "Feature", "geometry": {"type": "Point", "coordinates": [88.9539814, 27.0624125]}, "properties": {"osm_id": 10536705766, "name": "Tsholingkhar", "place": "village"}}, {"type": "Feature", "geometry": {"type": "Point", "coordinates": [88.9618778, 27.0550555]}, "properties": {"osm_id": 10536705767, "name": "Niguri", "place": "village"}}, {"type": "Feature", "geometry": {"type": "Point", "coordinates": [88.9581227, 27.0527242]}, "properties": {"osm_id": 10536705769, "name": "Setikhola", "place": "village"}}, {"type": "Feature", "geometry": {"type": "Point", "coordinates": [88.9518785, 27.0482714]}, "properties": {"osm_id": 10536705770, "name": "Bijubatar", "place": "village"}}, {"type": "Feature", "geometry": {"type": "Point", "coordinates": [88.9460099, 27.0450226]}, "properties": {"osm_id": 10536705771, "name": "Lamipokhori", "place": "village"}}, {"type": "Feature", "geometry": {"type": "Point", "coordinates": [88.9413643, 27.0393846]}, "properties": {"osm_id": 10536705772, "name": "Sernyagang", "place": "village"}}, {"type": "Feature", "geometry": {"type": "Point", "coordinates": [88.9227893, 28.0766527]}, "properties": {"osm_id": 10777146550, "name": "\u67e5\u679c\u62c9", "place": "village"}}, {"type": "Feature", "geometry": {"type": "Point", "coordinates": [87.9666335, 27.2868659]}, "properties": {"osm_id": 10853000166, "name": "Muklabu", "place": "village"}}, {"type": "Feature", "geometry": {"type": "Point", "coordinates": [87.9842607, 27.2990623]}, "properties": {"osm_id": 10853000198, "name": "Beteni", "place": "village"}}, {"type": "Feature", "geometry": {"type": "Point", "coordinates": [87.9885069, 27.2967297]}, "properties": {"osm_id": 10853000199, "name": "Sepi", "place": "village"}}, {"type": "Feature", "geometry": {"type": "Point", "coordinates": [87.9730815, 27.7367593]}, "properties": {"osm_id": 10963831109, "alt_name": "Kh\u0101\u1e45p\u0101chen;Kangbachen", "name": "Khangpachen", "name:en": "Khangpachen", "place": "village"}}, {"type": "Feature", "geometry": {"type": "Point", "coordinates": [88.6604941, 27.0859992]}, "properties": {"osm_id": 11664636917, "alt_name": "Labha", "name": "Lava", "place": "village"}}, {"type": "Feature", "geometry": {"type": "Point", "coordinates": [88.8314001, 27.1459569]}, "properties": {"osm_id": 11731002471, "name": "Patshaling", "place": "village"}}, {"type": "Feature", "geometry": {"type": "Point", "coordinates": [88.8366105, 27.1353079]}, "properties": {"osm_id": 11731002472, "name": "Kuengaling", "place": "village"}}, {"type": "Feature", "geometry": {"type": "Point", "coordinates": [88.5359631, 27.8924989]}, "properties": {"osm_id": 12258040622, "alt_name": "Tanggu;Thanggu", "name": "Thangu", "name:en": "Thangu Valley", "name:zh": "\u5510\u53e4", "place": "village", "source": "https://www.himalaya-info.org/images/Images%20Landkarten/Map%20Sikkim.jpg", "wikidata": "Q60768408", "wikipedia": "en:Thangu Valley"}}, {"type": "Feature", "geometry": {"type": "Point", "coordinates": [88.4709157, 27.3385259]}, "properties": {"osm_id": 12854457861, "name": "Lingmoo", "place": "village"}}, {"type": "Feature", "geometry": {"type": "Point", "coordinates": [88.486815, 27.346385]}, "properties": {"osm_id": 12854458794, "name": "Raley", "place": "village"}}, {"type": "Feature", "geometry": {"type": "Point", "coordinates": [88.9582664, 27.511309]}, "properties": {"osm_id": 12860407320, "alt_name:bo": "\u0f51\u0f42\u0f60\u0f0b\u0f42\u0fb3\u0f72\u0f44\u0f0b\u0f66\u0f92\u0f44", "alt_name:en": "Galingang;Kalinggang:Galingka", "capital": "9", "name": "\u560e\u6797\u5c97\u6751", "name:bo": "\u0f40\u0f0b\u0f63\u0f72\u0f44\u0f0b\u0f66\u0f92\u0f44", "name:en": "Galinggang", "name:zh": "\u560e\u6797\u5c97\u6751", "official_name": "\u560e\u6797\u5c97\u6751", "place": "village", "place:CN": "village", "wikidata": "Q14296246"}}, {"type": "Feature", "geometry": {"type": "Point", "coordinates": [88.6465196, 27.604236]}, "properties": {"osm_id": 13148720740, "name": "Chungthang", "name:fa": "\u0686\u0648\u0646\u06af\u062a\u0627\u0646\u06af", "name:hi": "\u091a\u0941\u0902\u0917\u0925\u093e\u0902\u0917", "name:ko": "\ucda9\ud0d5", "name:ne": "\u091a\u0941\u0919\u0925\u093e\u0919", "name:ur": "\u0686\u0646\u06af\u062a\u06be\u0627\u0646\u06af", "place": "village"}}, {"type": "Feature", "geometry": {"type": "Point", "coordinates": [88.9029121, 27.4862685]}, "properties": {"osm_id": 14059289473, "alt_name": "\u4e0b\u53f8\u9a6c\u793e\u533a\u5c45\u59d4\u4f1a", "alt_name:en": "Xiasima", "name": "\u4e0b\u53f8\u9a6c\u793e\u533a", "name:bo": "\u0f64\u0f62\u0f0b\u0f42\u0f66\u0f72\u0f44\u0f0b\u0f58", "name:en": "Xarsingma", "name:zh": "\u4e0b\u53f8\u9a6c\u793e\u533a", "place": "village", "short_name": "\u4e0b\u53f8\u9a6c\u793e", "wikidata": "Q14296198"}}, {"type": "Feature", "geometry": {"type": "Point", "coordinates": [88.9539476, 27.4097587]}, "properties": {"osm_id": 14064259654, "name": "\u5409\u70ed\u67e5\u6751", "name:zh": "\u5409\u70ed\u67e5\u6751", "place": "village"}}]}